id,municipio,nombre,direccion,lunesViernes,horarioSabado,horarioDomingo ,picoyCedula,pcLunes,pcMartes,pcMiercoles,pcJueves,pcViernes,pcSabado,pcDomingo,domicilioDirecto,whatsappDomicilio,telefono
,ARMENIA,DEL NORTE,Carrera 14 No. 8N - 13 Av. Bolivar,7:00 AM A 9:00 PM,7:00 AM A 9:00 PM,8:00 AM A 9:00 PM,,N/A,N/A,N/A,N/A,N/A,N/A,N/A,3187119270,-,7458077
,ARMENIA,SAO PORTAL QUINDIO,Calle 19 Norte No. 13 - 9,7:00 AM A 9:00 PM,7:00 AM A 9:00 PM,8:00 AM A 9:00 PM,,N/A,N/A,N/A,N/A,N/A,N/A,N/A,3187119272,-,7495200- 7359393
,ARMENIA,EL BOSQUE,Calle 22 No. 22 - 65,7:00 AM A 9:00 PM,6:00 AM A 9:00 PM,8:00 AM A 9:00 PM,,N/A,N/A,N/A,N/A,N/A,N/A,N/A,3187119294,-,7386858
,ARMENIA,SAO ARMENIA SUR,Calle 30 No. 40 - 80,7:00 AM A 9:00 PM,7:00 AM A 9:00 PM,8:00 AM A 9:00 PM,,N/A,N/A,N/A,N/A,N/A,N/A,N/A,3173709114,-,7313466
,MANIZALES,MANIZALES CENTRO,Carrera 21 No. 17 - 35,7:00 AM A 8:00 PM,7:00 AM A 8:00 PM,8:00 AM A 8:00 PM,,,,,,,,,-,Si,8918575
,MANIZALES,MANIZALES,Carrera 23 No. 59 - 70 Local 13,7:00 AM A 8:00 PM,7:00 AM A 8:00 PM,8:00 AM A 8:00 PM,,,,,,,,,3187119900,No,8918575
,MANIZALES,AV SANTANDER,Calle 50 No. 23 - 1,7:00 AM A 8:00 PM,7:00 AM A 8:00 PM,8:00 AM A 8:00 PM,,,,,,,,,3187119582,Si,8918575
,VILLAMARIA,VILLA MARIA,Calle 8 No. 5 - 20,7:00 AM A 8:00 PM,7:00 AM A 8:00 PM,8:00 AM A 8:00 PM,,,,,,,,,3183727580,Si,8918575
,MANIZALES,LA COSECHA,Calle 24 No. 16 - 37,7:00 AM A 8:00 PM,7:00 AM A 8:00 PM,8:00 AM A 6:00 PM,,,,,,,,,-,No,8918575
,CHINCHINÁ,CHINCHINÁ,Calle10 No. 7 - 41,7:00 AM A 8:00 PM,7:00 AM A 8:00 PM,8:00 AM A 8:00 PM,,,,,,,,,3174291386,No,8918575
,MANIZALES,MANIZALES MALL PLAZA,Calle 56 Avenida Kevin Angel CC Mall Plaza,7:00 AM A 8:00 PM,7:00 AM A 8:00 PM,8:00 AM A 8:00 PM,,,,,,,,,3182740428,Si,8918575
,ITAGUI,ARRAYANES,Carrera 50A No. 36 - 90 L1,6:00 AM A 8:00 PM,6:00 AM A 8:00 PM,8:00 AM A 6:00 PM,1,1-3-5-7-9,0-2-4-6-8,1-3-5-7-9,0-2-4-6-8,1-3-5-7-9,0-2-4-6-8,1-3-5-7-9,-,No,6040525
,ITAGUI,ITAGUI N°2 Cr 54,Carrera. 54 No. 81 - 06,7:00 AM A 8:00 PM,7:00 AM A 8:00 PM,8:00 AM A 6:00 PM ,1,1-3-5-7-9,0-2-4-6-8,1-3-5-7-9,0-2-4-6-8,1-3-5-7-9,0-2-4-6-8,1-3-5-7-9,-,No,6040525
,RIONEGRO,RIONEGRO 2,Carrera 45 No. 52 - 27,7:00 AM A 8:00 PM,7:00 AM A 8:00 PM,6:00 AM A 4:00 PM  ,1,1-3-5-7-9,0-2-4-6-8,1-3-5-7-9,0-2-4-6-8,1-3-5-7-9,0-2-4-6-8,1-3-5-7-9,5615433-3155859872,No,6040525
,LA CEJA,LA CEJA,Calle 20 No. 21 - 46,7:00 AM A 8:00 PM,7:00 AM A 8:00 PM,7:00 AM A 7:00 PM,1,1-3-5-7-9,0-2-4-6-8,1-3-5-7-9,0-2-4-6-8,1-3-5-7-9,0-2-4-6-8,1-3-5-7-9,5683749-3164680548,Si,6040525
,COPACABANA,COPACABANA,Carrera 52 No. 50 - 88,7:00 AM A 8:00 PM,7:00 AM A 8:00 PM,7:00 AM A 3:00 PM ,1,1-3-5-7-9,0-2-4-6-8,1-3-5-7-9,0-2-4-6-8,1-3-5-7-9,0-2-4-6-8,1-3-5-7-9,-,No,6040525
,MEDELLIN,SAN CRISTOBAL,Calle 63 No. 128 - 53,7:00 AM A 9:00 PM,7:00 AM A 9:00 PM,7:00 AM A 8:00 PM,1,1-3-5-7-9,0-2-4-6-8,-,-,-,-,-,-,No,6040525
,BELLO,BELLO Cl 51,Calle 51 No. 47 - 26,7:00 AM A 8:00 PM,7:00 AM A 8:00 PM,7:00 AM A 6:00 PM,1,1-3-5-7-9,0-2-4-6-8,1-3-5-7-9,0-2-4-6-8,1-3-5-7-9,0-2-4-6-8,1-3-5-7-9,-,3163748465,6040525
,MEDELLIN,LA FLORESTA,Carrera 87 No. 47D - 75,7:00 AM A 8:30 PM,7:00 AM A 8:30 PM,7:30 AM A 7:00 PM ,1,1-3-5-7-9,0-2-4-6-8,-,-,-,-,-,-,3164301430,6040525
,MEDELLIN,SAN LUCAS,Carrera 34 No. 16ASur - 241,7:00 AM A 9:00 PM,7:00 AM A 9:00 PM,8:00 AM A 7:00 PM  ,1,1-3-5-7-9,0-2-4-6-8,-,-,-,-,-,-,3187119853,6040525
,MEDELLIN,VILLANUEVA,Calle 57 No. 47 - 40,7:00 AM A 8:00 PM,7:00 AM A 8:00 PM,8:00 AM A 4:00 PM,1,1-3-5-7-9,0-2-4-6-8,-,-,-,-,-,-,3187119855,6040525
,MEDELLIN,LA MILAGROSA,Carrera 30 No. 41 - 35,6:30 AM A 9:00 PM,6:30 AM A 9:00 PM,7:30 AM A 8:00 PM ,1,1-3-5-7-9,0-2-4-6-8,-,-,-,-,-,-,3187119851,6040525
,MEDELLIN,COLOMBIA,Calle 50 No. 46 - 23,6:00 AM A 8:00 PM,6:00 AM A 8:00 PM,7:45 AM A 4:00 PM ,1,1-3-5-7-9,0-2-4-6-8,-,-,-,-,-,-,3187119848,6040525
,ITAGUI,ITAGUI,Calle 33 No. 47 - 32,7:00 AM A 8:00 PM,7:00 AM A 8:00 PM,7:30 AM A 6:00 PM ,1,1-3-5-7-9,0-2-4-6-8,1-3-5-7-9,0-2-4-6-8,1-3-5-7-9,0-2-4-6-8,1-3-5-7-9,-,3187119811,6040525
,MEDELLIN,BELEN,Calle 30A No 75 - 17,7:00 AM A 9:00 PM,7:00 AM A 9:00 PM,8:00 AM A 7:00 PM ,1,1-3-5-7-9,0-2-4-6-8,-,-,-,-,-,-,-,6040525
,RIONEGRO,RIONEGRO,Carrera 47 No. 52 - 50,7:00 AM A 6:00 PM,7:00 AM A 6:00 PM,8:00 AM A 4:00 PM ,1,1-3-5-7-9,0-2-4-6-8,1-3-5-7-9,0-2-4-6-8,1-3-5-7-9,0-2-4-6-8,1-3-5-7-9,5611240-3187121917,-,6040525
,ENVIGADO,ENVIGADO,Carrera 40 No. 37 Sur - 30,7:00 AM A 8:00 PM,7:00 AM A 8:00 PM,7:00 AM A 6:00 PM,1,1-3-5-7-9,0-2-4-6-8,1-3-5-7-9,0-2-4-6-8,1-3-5-7-9,0-2-4-6-8,1-3-5-7-9,-,-,6040525
,MEDELLIN,MANRIQUE,Carrera 45 No. 73 - 34,7:00 AM A 8:00 PM,7:00 AM A 8:00 PM,7:00 AM A 6:00 PM ,1,1-3-5-7-9,0-2-4-6-8,-,-,-,-,-,-,-,6040525
,QUIBDO,SAO QUIBDO,Calle 30 Av. Aeropuerto CC El Caraño,7:00 AM A 8:30 PM,7:00 AM A 8:30 PM,8:00 AM A 8:00 PM,1,1-3-5-7-9,0-2-4-6-8,1-3-5-7-9,0-2-4-6-8,1-3-5-7-9,0-2-4-6-8,QUEDATE EN CASA,-,-,6040525
,CARTAGO,SANTIAGO PLAZA,Calle 14 No. 11 - 19,7:00 AM A 9:00 PM,7:00 AM A 9:00 PM,8:00 AM A 8:00 PM,,,,,,,,,3187120979,-,3400363
,DOSQUEBRADAS,MONTEBONITO,Via Friales Urb Montebonito,7:00 AM A 9:00 PM,7:00 AM A 9:00 PM,8:00 AM A 8:00 PM,,,,,,,,,-,-,3400363
,PEREIRA,GAMA,Calle 83 No. 19 - 24,7:00 AM A 9:00 PM,7:00 AM A 9:00 PM,8:00 AM A 8:00 PM,,,,,,,,,3187119896,-,3400363
,PEREIRA,PEREIRA,Avenida 30 de Agosto No. 36 - 10,7:00 AM A 9:00 PM,7:00 AM A 9:00 PM,8:00 AM A 8:00 PM,,,,,,,,,3187119879,-,3400363
,DOSQUEBRADAS,DOS QUEBRADAS,Carrera 16 No. 36 - 98 Dosquebrad,7:00 AM A 9:00 PM,7:00 AM A 9:00 PM,8:00 AM A 8:00 PM,,,,,,,,,-,-,3400363
,SANTA ROSA DE CABAL,SANTA ROSA,Calle 15 No. 11 - 40,7:00 AM A 9:00 PM,7:00 AM A 9:00 PM,8:00 AM A 8:00 PM,,,,,,,,,-,-,3400363
,LA VIRGINIA,VIRGINIA,Calle 8 No. 6 - 35,7:00 AM A 9:00 PM,7:00 AM A 9:00 PM,8:00 AM A 8:00 PM,,,,,,,,,0363682077 - 3117017027,-,3400363
,PEREIRA,PLAZA DE LA LIBERTAD,Calle 14 No. 8 - 34,7:00 AM A 9:00 PM,7:00 AM A 9:00 PM,8:00 AM A 8:00 PM,,,,,,,,,-,-,3400363
,PEREIRA,CUBA,Calle 70 bis No. 23 - 93,7:00 AM A 9:00 PM,7:00 AM A 9:00 PM,8:00 AM A 8:00 PM,,,,,,,,,-,-,3400363
,PEREIRA,ALTAVISTA,Ciudadela Altavista,7:00 AM A 9:00 PM,7:00 AM A 9:00 PM,8:00 AM A 8:00 PM,,,,,,,,,-,-,3400363
,CARTAGO,CARTAGO 3,Transversal 7 No. 14 - 135,7:00 AM A 9:00 PM,7:00 AM A 9:00 PM,8:00 AM A 8:00 PM,,,,,,,,,3182680450,-,3400363
,CARTAGO,CARTAGO 1,Calle 10 No. 6 - 85,7:00 AM A 9:00 PM,7:00 AM A 9:00 PM,8:00 AM A 8:00 PM,,,,,,,,,-,3187119063,3400363
,CARTAGO,CARTAGO 2,Calle. 16  No. 4 - 06,7:00 AM A 9:00 PM,7:00 AM A 9:00 PM,8:00 AM A 8:00 PM,,,,,,,,,-,3187119064,3400363
,LA UNIÓN,LA UNION,Calle 15 No. 13 - 35,7:00 AM A 9:00 PM,7:00 AM A 9:00 PM,8:00 AM A 8:00 PM,1,PAR,IMPAR,PAR,IMPAR,PAR,PAR,IMPAR,3163748465,-,
,ROLDANILLO,ROLDANILLO,Calle 9 No. 6 - 35,7:00 AM A 9:00 PM,7:00 AM A 9:00 PM,8:00 AM A 8:00 PM,1,PAR,IMPAR,PAR,IMPAR,PAR,PAR,IMPAR,3164301430,-,
,SEVILLA,SEVILLA,Carrera  50 No 49 - 47,7:00 AM A 9:00 PM,7:00 AM A 9:00 PM,8:00 AM A 8:00 PM,1,PAR,IMPAR,PAR,IMPAR,PAR,PAR,IMPAR,2197045 EXT:100-3187119853,3187121466,
,ZARZAL,ZARZAL,Carrera 11 No. 9 - 30,7:00 AM A 9:00 PM,7:00 AM A 9:00 PM,8:00 AM A 8:00 PM,1,PAR,IMPAR,PAR,IMPAR,PAR,PAR,IMPAR,2206723 EXT:100-3187119855,-,2206723
,QUIMBAYA,QUIMBAYA,Carrera  6 No. 15 - 26,7:00 AM A 9:00 PM,7:00 AM A 9:00 PM,8:00 AM A 8:00 PM,,,,,,,,,3187119851,-,
,MONTENEGRO,MONTENEGRO,Carrera 6 No. 17 - 30,7:00 AM A 9:00 PM,7:00 AM A 9:00 PM,8:00 AM A 8:00 PM,,,,,,,,,3187119848,-,
,CALARCA,CALARCA,Carrera 27 No. 37 - 20,7:00 AM A 9:00 PM,7:00 AM A 9:00 PM,8:00 AM A 8:00 PM,,,,,,,,,3187119811,-,
,CAICEDONIA,CAICEDONIA II,Calle 12 No. 15 - 17,7:00 AM A 9:00 PM,7:00 AM A 9:00 PM,8:00 AM A 8:00 PM,1,PAR,IMPAR,PAR,IMPAR,PAR,PAR,IMPAR,3187119808,-,
,TUNJA,TUNJA,Av Norte No. 47A - 4,7:00 AM A 7:30 PM,7:00 AM A 7:30 PM,7:00 AM A 7:30 PM,1,"DIA PAR CEDULA PAR, DIA IMPAR CEDULA IMPAR","DIA PAR CEDULA PAR, DIA IMPAR CEDULA IMPAR","DIA PAR CEDULA PAR, DIA IMPAR CEDULA IMPAR","DIA PAR CEDULA PAR, DIA IMPAR CEDULA IMPAR","DIA PAR CEDULA PAR, DIA IMPAR CEDULA IMPAR","DIA PAR CEDULA PAR, DIA IMPAR CEDULA IMPAR","DIA PAR CEDULA PAR, DIA IMPAR CEDULA IMPAR",3187119334,-,-
,SOGAMOSO,SOGAMOSO,Carrera 13 No. 14 - 30-26 L101-2,8:30 AM A 9:00 PM,8:30 AM A 9:00 PM,8:00 AM A 8:00 PM,1,"DIA PAR CEDULA PAR, DIA IMPAR CEDULA IMPAR","DIA PAR CEDULA PAR, DIA IMPAR CEDULA IMPAR","DIA PAR CEDULA PAR, DIA IMPAR CEDULA IMPAR","DIA PAR CEDULA PAR, DIA IMPAR CEDULA IMPAR","DIA PAR CEDULA PAR, DIA IMPAR CEDULA IMPAR","DIA PAR CEDULA PAR, DIA IMPAR CEDULA IMPAR","DIA PAR CEDULA PAR, DIA IMPAR CEDULA IMPAR",3187119333,-,-
,CAJICÁ,CAJICÁ,Carrera 6E No. 252 km.3 Var.Cajicá,7:00 AM A 8:00 PM,7:00 AM A 8:00 PM,8:00 AM A 8:00 PM,1,"DIA PAR CEDULA IMPAR, DIA IMPAR CEDULA PAR","DIA PAR CEDULA IMPAR, DIA IMPAR CEDULA PAR","DIA PAR CEDULA IMPAR, DIA IMPAR CEDULA PAR","DIA PAR CEDULA IMPAR, DIA IMPAR CEDULA PAR","DIA PAR CEDULA IMPAR, DIA IMPAR CEDULA PAR","DIA PAR CEDULA IMPAR, DIA IMPAR CEDULA PAR","DIA PAR CEDULA IMPAR, DIA IMPAR CEDULA PAR",3174029549-8837171,-,8837171
,BOGOTA,CASTELLANA,Calle 95 No. 47A - 09,7:00 AM A 9:00 PM,7:00 AM A 9:00 PM,7:00 AM A 8:00 PM,1,"DIA PAR CEDULA IMPAR, DIA IMPAR CEDULA PAR","DIA PAR CEDULA IMPAR, DIA IMPAR CEDULA PAR","DIA PAR CEDULA IMPAR, DIA IMPAR CEDULA PAR","DIA PAR CEDULA IMPAR, DIA IMPAR CEDULA PAR","DIA PAR CEDULA IMPAR, DIA IMPAR CEDULA PAR","DIA PAR CEDULA IMPAR, DIA IMPAR CEDULA PAR","DIA PAR CEDULA IMPAR, DIA IMPAR CEDULA PAR",-,-,6064000
,BOGOTA,CALLE 100,Calle 100 No. 30-74,6:00 AM A 9:30 PM,6:00 AM A 9:30 PM,6:00 AM A 9:30 PM,1,"DIA PAR CEDULA IMPAR, DIA IMPAR CEDULA PAR","DIA PAR CEDULA IMPAR, DIA IMPAR CEDULA PAR","DIA PAR CEDULA IMPAR, DIA IMPAR CEDULA PAR","DIA PAR CEDULA IMPAR, DIA IMPAR CEDULA PAR","DIA PAR CEDULA IMPAR, DIA IMPAR CEDULA PAR","DIA PAR CEDULA IMPAR, DIA IMPAR CEDULA PAR","DIA PAR CEDULA IMPAR, DIA IMPAR CEDULA PAR",-,-,6064000
,BOGOTA,VILLA MAGDALA,Calle 153 No. 40 - 77,6:00 AM A 9:00 PM,6:00 AM A 9:00 PM,6:00 AM A 9:00 PM,1,"DIA PAR CEDULA IMPAR, DIA IMPAR CEDULA PAR","DIA PAR CEDULA IMPAR, DIA IMPAR CEDULA PAR","DIA PAR CEDULA IMPAR, DIA IMPAR CEDULA PAR","DIA PAR CEDULA IMPAR, DIA IMPAR CEDULA PAR","DIA PAR CEDULA IMPAR, DIA IMPAR CEDULA PAR","DIA PAR CEDULA IMPAR, DIA IMPAR CEDULA PAR","DIA PAR CEDULA IMPAR, DIA IMPAR CEDULA PAR",-,-,6064000
,BOGOTA,SANTA ANA,Carrera 7 No. 108 - 44,6:00 AM A 9:00 PM,6:00 AM A 9:00 PM,6:00 AM A 9:00 PM,1,"DIA PAR CEDULA IMPAR, DIA IMPAR CEDULA PAR","DIA PAR CEDULA IMPAR, DIA IMPAR CEDULA PAR","DIA PAR CEDULA IMPAR, DIA IMPAR CEDULA PAR","DIA PAR CEDULA IMPAR, DIA IMPAR CEDULA PAR","DIA PAR CEDULA IMPAR, DIA IMPAR CEDULA PAR","DIA PAR CEDULA IMPAR, DIA IMPAR CEDULA PAR","DIA PAR CEDULA IMPAR, DIA IMPAR CEDULA PAR",-,-,6064000
,BOGOTA,CONTADOR,Av 19 No. 137 - 38,6:00 AM A 9:30 PM,6:00 AM A 9:30 PM,6:00 AM A 9:30 PM,1,"DIA PAR CEDULA IMPAR, DIA IMPAR CEDULA PAR","DIA PAR CEDULA IMPAR, DIA IMPAR CEDULA PAR","DIA PAR CEDULA IMPAR, DIA IMPAR CEDULA PAR","DIA PAR CEDULA IMPAR, DIA IMPAR CEDULA PAR","DIA PAR CEDULA IMPAR, DIA IMPAR CEDULA PAR","DIA PAR CEDULA IMPAR, DIA IMPAR CEDULA PAR","DIA PAR CEDULA IMPAR, DIA IMPAR CEDULA PAR",-,-,6064000
,BOGOTA,CHICO I,Calle 97 No. 10 - 45,6:00 AM A 9:00 PM,6:00 AM A 9:00 PM,6:00 AM A 9:00 PM,1,"DIA PAR CEDULA IMPAR, DIA IMPAR CEDULA PAR","DIA PAR CEDULA IMPAR, DIA IMPAR CEDULA PAR","DIA PAR CEDULA IMPAR, DIA IMPAR CEDULA PAR","DIA PAR CEDULA IMPAR, DIA IMPAR CEDULA PAR","DIA PAR CEDULA IMPAR, DIA IMPAR CEDULA PAR","DIA PAR CEDULA IMPAR, DIA IMPAR CEDULA PAR","DIA PAR CEDULA IMPAR, DIA IMPAR CEDULA PAR",-,-,6064000
,CHIA,PLAZA MAYOR CHIA,Av Pradilla No. 5 - 31Este Chia,7:00 AM A 8:00 PM,7:00 AM A 8:00 PM,8:00 AM A 8:00 PM,1,"DIA PAR CEDULA IMPAR, DIA IMPAR CEDULA PAR","DIA PAR CEDULA IMPAR, DIA IMPAR CEDULA PAR","DIA PAR CEDULA IMPAR, DIA IMPAR CEDULA PAR","DIA PAR CEDULA IMPAR, DIA IMPAR CEDULA PAR","DIA PAR CEDULA IMPAR, DIA IMPAR CEDULA PAR","DIA PAR CEDULA IMPAR, DIA IMPAR CEDULA PAR",,3187119141-3102213943,-,6064000
,BOGOTA,COLINA CAMPESTRE,Calle 138 No. 52 - 03,6:00 AM A 9:00 PM,6:00 AM A 9:00 PM,6:00 AM A 9:00 PM,1,"DIA PAR CEDULA IMPAR, DIA IMPAR CEDULA PAR","DIA PAR CEDULA IMPAR, DIA IMPAR CEDULA PAR","DIA PAR CEDULA IMPAR, DIA IMPAR CEDULA PAR","DIA PAR CEDULA IMPAR, DIA IMPAR CEDULA PAR","DIA PAR CEDULA IMPAR, DIA IMPAR CEDULA PAR","DIA PAR CEDULA IMPAR, DIA IMPAR CEDULA PAR","DIA PAR CEDULA IMPAR, DIA IMPAR CEDULA PAR",-,-,6064000
,CHIA,AUTOPISTA NORTE,Autopista Norte Km 21 Via Chia,6:00 AM A 8:00 PM,6:00 AM A 8:00 PM,7:00 AM A 7:00 PM,1,"DIA PAR CEDULA IMPAR, DIA IMPAR CEDULA PAR","DIA PAR CEDULA IMPAR, DIA IMPAR CEDULA PAR","DIA PAR CEDULA IMPAR, DIA IMPAR CEDULA PAR","DIA PAR CEDULA IMPAR, DIA IMPAR CEDULA PAR","DIA PAR CEDULA IMPAR, DIA IMPAR CEDULA PAR","DIA PAR CEDULA IMPAR, DIA IMPAR CEDULA PAR",,3142022490-3187118976,-,6064000
,BOGOTA,CALLE 170,Carrera 55 No.169A - 55,6:00 AM A 9:00 PM,6:00 AM A 9:00 PM,6:00 AM A 9:00 PM,1,"DIA PAR CEDULA IMPAR, DIA IMPAR CEDULA PAR","DIA PAR CEDULA IMPAR, DIA IMPAR CEDULA PAR","DIA PAR CEDULA IMPAR, DIA IMPAR CEDULA PAR","DIA PAR CEDULA IMPAR, DIA IMPAR CEDULA PAR","DIA PAR CEDULA IMPAR, DIA IMPAR CEDULA PAR","DIA PAR CEDULA IMPAR, DIA IMPAR CEDULA PAR","DIA PAR CEDULA IMPAR, DIA IMPAR CEDULA PAR",-,-,6064000
,BOGOTA,MAZUREN,Transversal 40 No. 150 - 46,6:30 AM A 9:30 PM,6:30 AM A 9:30 PM,6:30 AM A 9:30 PM,1,"DIA PAR CEDULA IMPAR, DIA IMPAR CEDULA PAR","DIA PAR CEDULA IMPAR, DIA IMPAR CEDULA PAR","DIA PAR CEDULA IMPAR, DIA IMPAR CEDULA PAR","DIA PAR CEDULA IMPAR, DIA IMPAR CEDULA PAR","DIA PAR CEDULA IMPAR, DIA IMPAR CEDULA PAR","DIA PAR CEDULA IMPAR, DIA IMPAR CEDULA PAR","DIA PAR CEDULA IMPAR, DIA IMPAR CEDULA PAR",-,-,6064000
,BOGOTA,ISERRA,Carrera 38 No. 97 - 76,7:00 AM A 9:00 PM,7:00 AM A 9:00 PM,8:00 AM A 8:00 PM,1,"DIA PAR CEDULA IMPAR, DIA IMPAR CEDULA PAR","DIA PAR CEDULA IMPAR, DIA IMPAR CEDULA PAR","DIA PAR CEDULA IMPAR, DIA IMPAR CEDULA PAR","DIA PAR CEDULA IMPAR, DIA IMPAR CEDULA PAR","DIA PAR CEDULA IMPAR, DIA IMPAR CEDULA PAR","DIA PAR CEDULA IMPAR, DIA IMPAR CEDULA PAR","DIA PAR CEDULA IMPAR, DIA IMPAR CEDULA PAR",-,-,6064000
,BOGOTA,HACIENDA SANTA BARBARA,Calle 114 No. 6A - 92 HdaStaBar,6:00 AM A 9:00 PM,6:00 AM A 9:00 PM,7:00 AM A 7:00 PM,1,"DIA PAR CEDULA IMPAR, DIA IMPAR CEDULA PAR","DIA PAR CEDULA IMPAR, DIA IMPAR CEDULA PAR","DIA PAR CEDULA IMPAR, DIA IMPAR CEDULA PAR","DIA PAR CEDULA IMPAR, DIA IMPAR CEDULA PAR","DIA PAR CEDULA IMPAR, DIA IMPAR CEDULA PAR","DIA PAR CEDULA IMPAR, DIA IMPAR CEDULA PAR","DIA PAR CEDULA IMPAR, DIA IMPAR CEDULA PAR",-,-,6064000
,BOGOTA,CEDRITOS,Calle 140 No. 23 - 61,7:00 AM A 9:00 PM,7:00 AM A 9:00 PM,8:00 AM A 8:00 PM,1,"DIA PAR CEDULA IMPAR, DIA IMPAR CEDULA PAR","DIA PAR CEDULA IMPAR, DIA IMPAR CEDULA PAR","DIA PAR CEDULA IMPAR, DIA IMPAR CEDULA PAR","DIA PAR CEDULA IMPAR, DIA IMPAR CEDULA PAR","DIA PAR CEDULA IMPAR, DIA IMPAR CEDULA PAR","DIA PAR CEDULA IMPAR, DIA IMPAR CEDULA PAR","DIA PAR CEDULA IMPAR, DIA IMPAR CEDULA PAR",-,-,6064000
,BOGOTA,PLAZA 147,Avenida Carrera 15 No. 146 - 50 L10,6:00 AM A 9:00 PM,6:00 AM A 9:00 PM,8:00 AM A 8:00 PM,1,"DIA PAR CEDULA IMPAR, DIA IMPAR CEDULA PAR","DIA PAR CEDULA IMPAR, DIA IMPAR CEDULA PAR","DIA PAR CEDULA IMPAR, DIA IMPAR CEDULA PAR","DIA PAR CEDULA IMPAR, DIA IMPAR CEDULA PAR","DIA PAR CEDULA IMPAR, DIA IMPAR CEDULA PAR","DIA PAR CEDULA IMPAR, DIA IMPAR CEDULA PAR","DIA PAR CEDULA IMPAR, DIA IMPAR CEDULA PAR",-,-,6064000
,BOGOTA,LISBOA,Calle 134 No. 13 - 83 Loc14,9:00 AM A 6:00 PM,9:00 AM A 6:00 PM,8:00 AM A 3:00 PM,1,"DIA PAR CEDULA IMPAR, DIA IMPAR CEDULA PAR","DIA PAR CEDULA IMPAR, DIA IMPAR CEDULA PAR","DIA PAR CEDULA IMPAR, DIA IMPAR CEDULA PAR","DIA PAR CEDULA IMPAR, DIA IMPAR CEDULA PAR","DIA PAR CEDULA IMPAR, DIA IMPAR CEDULA PAR","DIA PAR CEDULA IMPAR, DIA IMPAR CEDULA PAR","DIA PAR CEDULA IMPAR, DIA IMPAR CEDULA PAR",-,-,6064000
,BOGOTA,PALATINO,Carrera 7A No. 139-04 L501,7:00 AM A 9:00 PM,7:00 AM A 9:00 PM,8:00 AM A 8:00 PM,1,"DIA PAR CEDULA IMPAR, DIA IMPAR CEDULA PAR","DIA PAR CEDULA IMPAR, DIA IMPAR CEDULA PAR","DIA PAR CEDULA IMPAR, DIA IMPAR CEDULA PAR","DIA PAR CEDULA IMPAR, DIA IMPAR CEDULA PAR","DIA PAR CEDULA IMPAR, DIA IMPAR CEDULA PAR","DIA PAR CEDULA IMPAR, DIA IMPAR CEDULA PAR","DIA PAR CEDULA IMPAR, DIA IMPAR CEDULA PAR",-,-,6064000
,BOGOTA,PEPE SIERRA,Calle 116 No. 9 C - 10,8:00 AM A 8:00 PM,8:00 AM A 8:00 PM,8:00 AM A 8:00 PM,1,"DIA PAR CEDULA IMPAR, DIA IMPAR CEDULA PAR","DIA PAR CEDULA IMPAR, DIA IMPAR CEDULA PAR","DIA PAR CEDULA IMPAR, DIA IMPAR CEDULA PAR","DIA PAR CEDULA IMPAR, DIA IMPAR CEDULA PAR","DIA PAR CEDULA IMPAR, DIA IMPAR CEDULA PAR","DIA PAR CEDULA IMPAR, DIA IMPAR CEDULA PAR","DIA PAR CEDULA IMPAR, DIA IMPAR CEDULA PAR",-,-,6064000
,BOGOTA,LA FONTANA,Avenida 15 No. 125 A - 20,6:00 AM A 8:00 PM,6:00 AM A 8:00 PM,8:00 AM A 8:00 PM,1,"DIA PAR CEDULA IMPAR, DIA IMPAR CEDULA PAR","DIA PAR CEDULA IMPAR, DIA IMPAR CEDULA PAR","DIA PAR CEDULA IMPAR, DIA IMPAR CEDULA PAR","DIA PAR CEDULA IMPAR, DIA IMPAR CEDULA PAR","DIA PAR CEDULA IMPAR, DIA IMPAR CEDULA PAR","DIA PAR CEDULA IMPAR, DIA IMPAR CEDULA PAR","DIA PAR CEDULA IMPAR, DIA IMPAR CEDULA PAR",-,-,6064000
,BOGOTA,LA CAROLINA,Diagonal 127 A No 17 - 74,7:00 AM A 8:00 PM,7:00 AM A 8:00 PM,8:00 AM A 6:00 PM,1,"DIA PAR CEDULA IMPAR, DIA IMPAR CEDULA PAR","DIA PAR CEDULA IMPAR, DIA IMPAR CEDULA PAR","DIA PAR CEDULA IMPAR, DIA IMPAR CEDULA PAR","DIA PAR CEDULA IMPAR, DIA IMPAR CEDULA PAR","DIA PAR CEDULA IMPAR, DIA IMPAR CEDULA PAR","DIA PAR CEDULA IMPAR, DIA IMPAR CEDULA PAR","DIA PAR CEDULA IMPAR, DIA IMPAR CEDULA PAR",-,-,6064000
,BOGOTA,AVENIDA 15,Avenida 15 No. 118 - 90,7:00 AM A 8:00 PM,7:00 AM A 8:00 PM,8:00 AM A 6:00 PM,1,"DIA PAR CEDULA IMPAR, DIA IMPAR CEDULA PAR","DIA PAR CEDULA IMPAR, DIA IMPAR CEDULA PAR","DIA PAR CEDULA IMPAR, DIA IMPAR CEDULA PAR","DIA PAR CEDULA IMPAR, DIA IMPAR CEDULA PAR","DIA PAR CEDULA IMPAR, DIA IMPAR CEDULA PAR","DIA PAR CEDULA IMPAR, DIA IMPAR CEDULA PAR","DIA PAR CEDULA IMPAR, DIA IMPAR CEDULA PAR",-,-,6064000
,CHIA,CHIA,Carrera 11 No. 11-69,7:00 AM A 8:00 PM,7:00 AM A 8:00 PM,7:00 AM A 8:00 PM,1,"DIA PAR CEDULA IMPAR, DIA IMPAR CEDULA PAR","DIA PAR CEDULA IMPAR, DIA IMPAR CEDULA PAR","DIA PAR CEDULA IMPAR, DIA IMPAR CEDULA PAR","DIA PAR CEDULA IMPAR, DIA IMPAR CEDULA PAR","DIA PAR CEDULA IMPAR, DIA IMPAR CEDULA PAR","DIA PAR CEDULA IMPAR, DIA IMPAR CEDULA PAR",,3003943188-3187119107,3187120979,6064000
,BOGOTA,FUTURO,Diagonal 147 No. 34-30. L1,7:00 AM A 8:00 PM,7:00 AM A 8:00 PM,8:00 AM A 8:00 PM,1,"DIA PAR CEDULA IMPAR, DIA IMPAR CEDULA PAR","DIA PAR CEDULA IMPAR, DIA IMPAR CEDULA PAR","DIA PAR CEDULA IMPAR, DIA IMPAR CEDULA PAR","DIA PAR CEDULA IMPAR, DIA IMPAR CEDULA PAR","DIA PAR CEDULA IMPAR, DIA IMPAR CEDULA PAR","DIA PAR CEDULA IMPAR, DIA IMPAR CEDULA PAR","DIA PAR CEDULA IMPAR, DIA IMPAR CEDULA PAR",-,-,6064000
,ZIPAQUIRA,ZIPAQUIRA,Calle 3 No. 6 - 36 L135,7:00 AM A 8:00 PM,7:00 AM A 8:00 PM,7:00 AM A 8:00 PM,1,PICO Y GENERO,PICO Y GENERO,PICO Y GENERO,PICO Y GENERO,PICO Y GENERO,CERRADO AL PUBLICO- SOLO DOMICILIO,,3183727583,-,8826903
,COTA,COTA,CC Centrika Mall Vrd. P. Viejo Jardin 1 L33,7:00 AM A 8:00 PM,7:00 AM A 8:00 PM,8:00 AM A 8:00 PM,1,"DIA PAR CEDULA IMPAR, DIA IMPAR CEDULA PAR","DIA PAR CEDULA IMPAR, DIA IMPAR CEDULA PAR","DIA PAR CEDULA IMPAR, DIA IMPAR CEDULA PAR","DIA PAR CEDULA IMPAR, DIA IMPAR CEDULA PAR","DIA PAR CEDULA IMPAR, DIA IMPAR CEDULA PAR","DIA PAR CEDULA IMPAR, DIA IMPAR CEDULA PAR","DIA PAR CEDULA IMPAR, DIA IMPAR CEDULA PAR",3173785167,-,6064000
,PUERTO BOYACÁ,PUERTO BOYACÁ,Calle 24 No. 4 - 5,7:00 AM A 10:00 PM,7:00 AM A 8:00 PM,8:00 AM A 8:00 PM,,N/A,N/A,N/A,N/A,N/A,N/A,N/A,3167429517,-,-
,LA DORADA CALDAS,LA DORADA CALDAS,Calle 17 No. 3 - 04,7:00 AM A 10:00 PM,8:00 AM A 2:00 PM,8:00 AM A 2:00 PM,1,N/A,N/A,N/A,N/A,"1,2,3,","4,5,6,","7,8,9,0",3165215931,-,-
,BOGOTA,SAO PLAZA DE LAS AMERICAS,Tranversal 64 A No 26 - 50 Sur,7:00 AM A 8:00 PM,7:00 AM A 9:00 PM,8:00 AM A 8:00 PM,1,"DIA PAR CEDULA IMPAR, DIA IMPAR CEDULA PAR","DIA PAR CEDULA IMPAR, DIA IMPAR CEDULA PAR","DIA PAR CEDULA IMPAR, DIA IMPAR CEDULA PAR","DIA PAR CEDULA IMPAR, DIA IMPAR CEDULA PAR","DIA PAR CEDULA IMPAR, DIA IMPAR CEDULA PAR","DIA PAR CEDULA IMPAR, DIA IMPAR CEDULA PAR","DIA PAR CEDULA IMPAR, DIA IMPAR CEDULA PAR",-,-,6064000
,BOGOTA,ROSALES,Carrera 7 No. 82 - 82,6:00 AM A 8:00 PM,6:00 AM A 9:00 PM,8:00 AM A 8:00 PM,1,"DIA PAR CEDULA IMPAR, DIA IMPAR CEDULA PAR","DIA PAR CEDULA IMPAR, DIA IMPAR CEDULA PAR","DIA PAR CEDULA IMPAR, DIA IMPAR CEDULA PAR","DIA PAR CEDULA IMPAR, DIA IMPAR CEDULA PAR","DIA PAR CEDULA IMPAR, DIA IMPAR CEDULA PAR","DIA PAR CEDULA IMPAR, DIA IMPAR CEDULA PAR","DIA PAR CEDULA IMPAR, DIA IMPAR CEDULA PAR",3105704767,-,6064000
,BOGOTA,CLL 63,Calle 63 No. 16 - 25,7:00 AM A 8:00 PM,7:00 AM A 9:00 PM,8:00 AM A 7:00 PM,1,"DIA PAR CEDULA IMPAR, DIA IMPAR CEDULA PAR","DIA PAR CEDULA IMPAR, DIA IMPAR CEDULA PAR","DIA PAR CEDULA IMPAR, DIA IMPAR CEDULA PAR","DIA PAR CEDULA IMPAR, DIA IMPAR CEDULA PAR","DIA PAR CEDULA IMPAR, DIA IMPAR CEDULA PAR","DIA PAR CEDULA IMPAR, DIA IMPAR CEDULA PAR","DIA PAR CEDULA IMPAR, DIA IMPAR CEDULA PAR",-,-,6064000
,BOGOTA,NORMANDIA,Av Boyaca No. 53 - 12,6:00 AM A 8:00 PM,6:00 AM A 9:00 PM,7:00 AM A 8:00 PM,1,"DIA PAR CEDULA IMPAR, DIA IMPAR CEDULA PAR","DIA PAR CEDULA IMPAR, DIA IMPAR CEDULA PAR","DIA PAR CEDULA IMPAR, DIA IMPAR CEDULA PAR","DIA PAR CEDULA IMPAR, DIA IMPAR CEDULA PAR","DIA PAR CEDULA IMPAR, DIA IMPAR CEDULA PAR","DIA PAR CEDULA IMPAR, DIA IMPAR CEDULA PAR","DIA PAR CEDULA IMPAR, DIA IMPAR CEDULA PAR",-,-,6064000
,BOGOTA,SAO SUBA,Calle 140 No. 91 - 19,7:00 AM A 8:00 PM,7:00 AM A 8:00 PM,8:00 AM A 8:00 PM,1,"DIA PAR CEDULA IMPAR, DIA IMPAR CEDULA PAR","DIA PAR CEDULA IMPAR, DIA IMPAR CEDULA PAR","DIA PAR CEDULA IMPAR, DIA IMPAR CEDULA PAR","DIA PAR CEDULA IMPAR, DIA IMPAR CEDULA PAR","DIA PAR CEDULA IMPAR, DIA IMPAR CEDULA PAR","DIA PAR CEDULA IMPAR, DIA IMPAR CEDULA PAR","DIA PAR CEDULA IMPAR, DIA IMPAR CEDULA PAR",-,-,6064000
,BOGOTA,SAO CHAPINERO,Calle 63 A # 16-55,7:00 AM A 8:00 PM,7:00 AM A 9:00 PM,8:00 AM A 8:00 PM,1,"DIA PAR CEDULA IMPAR, DIA IMPAR CEDULA PAR","DIA PAR CEDULA IMPAR, DIA IMPAR CEDULA PAR","DIA PAR CEDULA IMPAR, DIA IMPAR CEDULA PAR","DIA PAR CEDULA IMPAR, DIA IMPAR CEDULA PAR","DIA PAR CEDULA IMPAR, DIA IMPAR CEDULA PAR","DIA PAR CEDULA IMPAR, DIA IMPAR CEDULA PAR","DIA PAR CEDULA IMPAR, DIA IMPAR CEDULA PAR",3102213915,-,6064000
,BOGOTA,CHICO II,Carrera 15 No. 97 - 25,6:00 AM A 8:00 PM,6:00 AM A 9:00 PM,8:00 AM A 8:00 PM,1,"DIA PAR CEDULA IMPAR, DIA IMPAR CEDULA PAR","DIA PAR CEDULA IMPAR, DIA IMPAR CEDULA PAR","DIA PAR CEDULA IMPAR, DIA IMPAR CEDULA PAR","DIA PAR CEDULA IMPAR, DIA IMPAR CEDULA PAR","DIA PAR CEDULA IMPAR, DIA IMPAR CEDULA PAR","DIA PAR CEDULA IMPAR, DIA IMPAR CEDULA PAR","DIA PAR CEDULA IMPAR, DIA IMPAR CEDULA PAR",-,-,6064000
,BOGOTA,MODELO,Calle 69 # 44 - 20,7:00 AM A 8:00 PM,7:00 AM A 9:00 PM,8:00 AM A 8:00 PM,1,"DIA PAR CEDULA IMPAR, DIA IMPAR CEDULA PAR","DIA PAR CEDULA IMPAR, DIA IMPAR CEDULA PAR","DIA PAR CEDULA IMPAR, DIA IMPAR CEDULA PAR","DIA PAR CEDULA IMPAR, DIA IMPAR CEDULA PAR","DIA PAR CEDULA IMPAR, DIA IMPAR CEDULA PAR","DIA PAR CEDULA IMPAR, DIA IMPAR CEDULA PAR","DIA PAR CEDULA IMPAR, DIA IMPAR CEDULA PAR",3187118987,-,6064000
,BOGOTA,CALLE 56,Carrera 13 No. 56 - 59,6:30 AM A 8:00 PM,6:30 AM A 9:00 PM,8:00 AM A 7:00 PM,1,"DIA PAR CEDULA IMPAR, DIA IMPAR CEDULA PAR","DIA PAR CEDULA IMPAR, DIA IMPAR CEDULA PAR","DIA PAR CEDULA IMPAR, DIA IMPAR CEDULA PAR","DIA PAR CEDULA IMPAR, DIA IMPAR CEDULA PAR","DIA PAR CEDULA IMPAR, DIA IMPAR CEDULA PAR","DIA PAR CEDULA IMPAR, DIA IMPAR CEDULA PAR","DIA PAR CEDULA IMPAR, DIA IMPAR CEDULA PAR",-,-,6064000
,BOGOTA,SAO PORTAL DE LA 80,Av Calle 80 No.100 - 79 Portal de la 80,7:00 AM A 8:00 PM,7:00 AM A 9:00 PM,8:00 AM A 7:00 PM,1,"DIA PAR CEDULA IMPAR, DIA IMPAR CEDULA PAR","DIA PAR CEDULA IMPAR, DIA IMPAR CEDULA PAR","DIA PAR CEDULA IMPAR, DIA IMPAR CEDULA PAR","DIA PAR CEDULA IMPAR, DIA IMPAR CEDULA PAR","DIA PAR CEDULA IMPAR, DIA IMPAR CEDULA PAR","DIA PAR CEDULA IMPAR, DIA IMPAR CEDULA PAR","DIA PAR CEDULA IMPAR, DIA IMPAR CEDULA PAR",-,-,6064000
,BOGOTA,7 DE AGOSTO,Carrera 24 No. 63F - 5,7:00 AM A 8:00 PM,7:00 AM A 9:00 PM,8:00 AM A 8:00 PM,1,"DIA PAR CEDULA IMPAR, DIA IMPAR CEDULA PAR","DIA PAR CEDULA IMPAR, DIA IMPAR CEDULA PAR","DIA PAR CEDULA IMPAR, DIA IMPAR CEDULA PAR","DIA PAR CEDULA IMPAR, DIA IMPAR CEDULA PAR","DIA PAR CEDULA IMPAR, DIA IMPAR CEDULA PAR","DIA PAR CEDULA IMPAR, DIA IMPAR CEDULA PAR","DIA PAR CEDULA IMPAR, DIA IMPAR CEDULA PAR",3102752227,-,6064000
,BOGOTA,CALLE 67,Calle 67 No. 10 - 22,7:00 AM A 8:00 PM,7:00 AM A 9:00 PM,8:00 AM A 7:00 PM,1,"DIA PAR CEDULA IMPAR, DIA IMPAR CEDULA PAR","DIA PAR CEDULA IMPAR, DIA IMPAR CEDULA PAR","DIA PAR CEDULA IMPAR, DIA IMPAR CEDULA PAR","DIA PAR CEDULA IMPAR, DIA IMPAR CEDULA PAR","DIA PAR CEDULA IMPAR, DIA IMPAR CEDULA PAR","DIA PAR CEDULA IMPAR, DIA IMPAR CEDULA PAR","DIA PAR CEDULA IMPAR, DIA IMPAR CEDULA PAR",-,-,6064000
,BOGOTA,COSMO 64,Calle 64 No. 11 - 05,7:00 AM A 8:00 PM,7:00 AM A 9:00 PM,8:00 AM A 7:00 PM,1,"DIA PAR CEDULA IMPAR, DIA IMPAR CEDULA PAR","DIA PAR CEDULA IMPAR, DIA IMPAR CEDULA PAR","DIA PAR CEDULA IMPAR, DIA IMPAR CEDULA PAR","DIA PAR CEDULA IMPAR, DIA IMPAR CEDULA PAR","DIA PAR CEDULA IMPAR, DIA IMPAR CEDULA PAR","DIA PAR CEDULA IMPAR, DIA IMPAR CEDULA PAR","DIA PAR CEDULA IMPAR, DIA IMPAR CEDULA PAR",3164110380,-,6064000
,BOGOTA,AV. CHILE,Calle 72 No. 13 - 85,6:00 AM A 8:00 PM,6:00 AM A 9:00 PM,8:00 AM A 7:00 PM,1,"DIA PAR CEDULA IMPAR, DIA IMPAR CEDULA PAR","DIA PAR CEDULA IMPAR, DIA IMPAR CEDULA PAR","DIA PAR CEDULA IMPAR, DIA IMPAR CEDULA PAR","DIA PAR CEDULA IMPAR, DIA IMPAR CEDULA PAR","DIA PAR CEDULA IMPAR, DIA IMPAR CEDULA PAR","DIA PAR CEDULA IMPAR, DIA IMPAR CEDULA PAR","DIA PAR CEDULA IMPAR, DIA IMPAR CEDULA PAR",3102830089 - 3132501361,-,6064000
,BOGOTA,PLAZA,Calle 125 A No. 54 - 90,7:00 AM A 8:00 PM,7:00 AM A 9:00 PM,8:00 AM A 8:00 PM,1,"DIA PAR CEDULA IMPAR, DIA IMPAR CEDULA PAR","DIA PAR CEDULA IMPAR, DIA IMPAR CEDULA PAR","DIA PAR CEDULA IMPAR, DIA IMPAR CEDULA PAR","DIA PAR CEDULA IMPAR, DIA IMPAR CEDULA PAR","DIA PAR CEDULA IMPAR, DIA IMPAR CEDULA PAR","DIA PAR CEDULA IMPAR, DIA IMPAR CEDULA PAR","DIA PAR CEDULA IMPAR, DIA IMPAR CEDULA PAR",3187119341,-,6064000
,LA CALERA,CALERA,Carrera 3 No. 6 - 56,7:00 AM A 8:00 PM,7:00 AM A 8:00 PM,8:00 AM A 8:00 PM,1,"DIA PAR CEDULA PAR, DIA IMPAR CEDULA IMPAR","DIA PAR CEDULA PAR, DIA IMPAR CEDULA IMPAR","DIA PAR CEDULA PAR, DIA IMPAR CEDULA IMPAR","DIA PAR CEDULA PAR, DIA IMPAR CEDULA IMPAR","DIA PAR CEDULA PAR, DIA IMPAR CEDULA IMPAR","DIA PAR CEDULA PAR, DIA IMPAR CEDULA IMPAR","DIA PAR CEDULA PAR, DIA IMPAR CEDULA IMPAR",318711936 - 8601662,-,-
,BOGOTA,METROPOLIS,Carrera 68 No. 75A - 50 CC Metropolis,7:00 AM A 8:00 PM,7:00 AM A 9:00 PM,8:00 AM A 8:00 PM,1,"DIA PAR CEDULA IMPAR, DIA IMPAR CEDULA PAR","DIA PAR CEDULA IMPAR, DIA IMPAR CEDULA PAR","DIA PAR CEDULA IMPAR, DIA IMPAR CEDULA PAR","DIA PAR CEDULA IMPAR, DIA IMPAR CEDULA PAR","DIA PAR CEDULA IMPAR, DIA IMPAR CEDULA PAR","DIA PAR CEDULA IMPAR, DIA IMPAR CEDULA PAR","DIA PAR CEDULA IMPAR, DIA IMPAR CEDULA PAR",3187121358,-,6064000
,BOGOTA,SUBA SALITRE,Carrera 92 No. 158 -04,7:00 AM A 8:00 PM,7:00 AM A 8:00 PM,8:00 AM A 7:00 PM,1,"DIA PAR CEDULA IMPAR, DIA IMPAR CEDULA PAR","DIA PAR CEDULA IMPAR, DIA IMPAR CEDULA PAR","DIA PAR CEDULA IMPAR, DIA IMPAR CEDULA PAR","DIA PAR CEDULA IMPAR, DIA IMPAR CEDULA PAR","DIA PAR CEDULA IMPAR, DIA IMPAR CEDULA PAR","DIA PAR CEDULA IMPAR, DIA IMPAR CEDULA PAR","DIA PAR CEDULA IMPAR, DIA IMPAR CEDULA PAR",-,-,6064000
,LA DORADA CALDAS,LAS FERIAS,Carrera 4 No. 42 - 125,7:00 AM A 9:00 PM,8:00 AM A 2:00 PM,8:00 AM A 2:00 PM,1,N/A,N/A,N/A,N/A,"1,2,3,","4,5,6,","7,8,9,0",3154281210,-,-
,YOPAL,SAO YOPAL,Calle 24 No. 23 - 15,7:00 AM A 9:00 PM,7:00 AM A 9:00 PM,7:00 AM A 8:00 PM,,N/A,N/A,N/A,N/A,,N/A,N/A,-,-,6333535
,FUNZA,FUNZA Cr 13,Carrera 13 Calle16,7:00 AM A 8:00 PM,7:00 AM A 8:00 PM,8:00 AM A 7:30 PM,1,"DIA PAR CEDULA IMPAR, DIA IMPAR CEDULA PAR","DIA PAR CEDULA IMPAR, DIA IMPAR CEDULA PAR","DIA PAR CEDULA IMPAR, DIA IMPAR CEDULA PAR","DIA PAR CEDULA IMPAR, DIA IMPAR CEDULA PAR","DIA PAR CEDULA IMPAR, DIA IMPAR CEDULA PAR","DIA PAR CEDULA IMPAR, DIA IMPAR CEDULA PAR",,3134361376-3166918840,-,6064000
,SOACHA,PRADO VERDE,Transversal 40 No. 18 - 77 CC Prado verde,7:00 AM A 8:00 PM,7:00 AM A 8:00 PM,8:00 AM A 5:00 PM,,N/A,N/A,N/A,N/A,N/A,N/A,,3175031427,-,6064000
,BOGOTA,BOSA NOVA,Tranv 86B No. 60 - 37 Sur,7:00 AM A 9:00 PM,7:00 AM A 9:00 PM,8:00 AM A 8:00 PM,1,"DIA PAR CEDULA IMPAR, DIA IMPAR CEDULA PAR","DIA PAR CEDULA IMPAR, DIA IMPAR CEDULA PAR","DIA PAR CEDULA IMPAR, DIA IMPAR CEDULA PAR","DIA PAR CEDULA IMPAR, DIA IMPAR CEDULA PAR","DIA PAR CEDULA IMPAR, DIA IMPAR CEDULA PAR","DIA PAR CEDULA IMPAR, DIA IMPAR CEDULA PAR","DIA PAR CEDULA IMPAR, DIA IMPAR CEDULA PAR",-,-,6064000
,BOGOTA,SANTA ISABEL,Avenida 3A No. 29 - 69,6:00 AM A 9:00 PM,6:00 AM A 9:00 PM,8:00 AM A 8:00 PM,1,"DIA PAR CEDULA IMPAR, DIA IMPAR CEDULA PAR","DIA PAR CEDULA IMPAR, DIA IMPAR CEDULA PAR","DIA PAR CEDULA IMPAR, DIA IMPAR CEDULA PAR","DIA PAR CEDULA IMPAR, DIA IMPAR CEDULA PAR","DIA PAR CEDULA IMPAR, DIA IMPAR CEDULA PAR","DIA PAR CEDULA IMPAR, DIA IMPAR CEDULA PAR","DIA PAR CEDULA IMPAR, DIA IMPAR CEDULA PAR",3511006- 3187113168,-,6064000
,BOGOTA,AVENIDA,Carrera 4A No. 18 - 42,7:00 AM A 9:00 PM,7:00 AM A 9:00 PM,8:00 AM A 4:00 PM,1,"DIA PAR CEDULA IMPAR, DIA IMPAR CEDULA PAR","DIA PAR CEDULA IMPAR, DIA IMPAR CEDULA PAR","DIA PAR CEDULA IMPAR, DIA IMPAR CEDULA PAR","DIA PAR CEDULA IMPAR, DIA IMPAR CEDULA PAR","DIA PAR CEDULA IMPAR, DIA IMPAR CEDULA PAR","DIA PAR CEDULA IMPAR, DIA IMPAR CEDULA PAR","DIA PAR CEDULA IMPAR, DIA IMPAR CEDULA PAR",-,-,6064000
,BOGOTA,CENT NARIÑO,Carrera 40 No. 22 - 10,6:00 AM A 9:00 PM,6:00 AM A 9:00 PM,8:00 AM A 8:00 PM,1,"DIA PAR CEDULA IMPAR, DIA IMPAR CEDULA PAR","DIA PAR CEDULA IMPAR, DIA IMPAR CEDULA PAR","DIA PAR CEDULA IMPAR, DIA IMPAR CEDULA PAR","DIA PAR CEDULA IMPAR, DIA IMPAR CEDULA PAR","DIA PAR CEDULA IMPAR, DIA IMPAR CEDULA PAR","DIA PAR CEDULA IMPAR, DIA IMPAR CEDULA PAR","DIA PAR CEDULA IMPAR, DIA IMPAR CEDULA PAR",-,-,6064000
,BOGOTA,QUINTA RAMOS,Carrera 10 No 11 - 34 Sur,6:00 AM A 9:00 PM,6:00 AM A 9:00 PM,8:00 AM A 8:00 PM,1,"DIA PAR CEDULA IMPAR, DIA IMPAR CEDULA PAR","DIA PAR CEDULA IMPAR, DIA IMPAR CEDULA PAR","DIA PAR CEDULA IMPAR, DIA IMPAR CEDULA PAR","DIA PAR CEDULA IMPAR, DIA IMPAR CEDULA PAR","DIA PAR CEDULA IMPAR, DIA IMPAR CEDULA PAR","DIA PAR CEDULA IMPAR, DIA IMPAR CEDULA PAR","DIA PAR CEDULA IMPAR, DIA IMPAR CEDULA PAR",-,-,6064000
,SOACHA,UNISUR,Carrera 3 No. 29 A - 02,7:00 AM A 8:00 PM,7:00 AM A 8:00 PM,8:00 AM A 5:00 PM,,N/A,N/A,N/A,N/A,N/A,N/A,,3187119120,-,6064000
,BOGOTA,JIMENEZ,Av Jimenez No. 4 - 74,6:00 AM A 8:00 PM,6:00 AM A 8:00 PM,8:00 AM A 4:00 PM,1,"DIA PAR CEDULA IMPAR, DIA IMPAR CEDULA PAR","DIA PAR CEDULA IMPAR, DIA IMPAR CEDULA PAR","DIA PAR CEDULA IMPAR, DIA IMPAR CEDULA PAR","DIA PAR CEDULA IMPAR, DIA IMPAR CEDULA PAR","DIA PAR CEDULA IMPAR, DIA IMPAR CEDULA PAR","DIA PAR CEDULA IMPAR, DIA IMPAR CEDULA PAR","DIA PAR CEDULA IMPAR, DIA IMPAR CEDULA PAR",-,-,6064000
,BOGOTA,KENNEDY,Carrera 74 No. 38 - 10 Sur,7:00 AM A 9:00 PM,7:00 AM A 9:00 PM,8:00 AM A 8:00 PM,1,"DIA PAR CEDULA IMPAR, DIA IMPAR CEDULA PAR","DIA PAR CEDULA IMPAR, DIA IMPAR CEDULA PAR","DIA PAR CEDULA IMPAR, DIA IMPAR CEDULA PAR","DIA PAR CEDULA IMPAR, DIA IMPAR CEDULA PAR","DIA PAR CEDULA IMPAR, DIA IMPAR CEDULA PAR","DIA PAR CEDULA IMPAR, DIA IMPAR CEDULA PAR","DIA PAR CEDULA IMPAR, DIA IMPAR CEDULA PAR",-,-,6064000
,BOGOTA,RESTREPO,Calle 16 Sur No. 16 - 43,6:30 AM A 9:00 PM,6:30 AM A 9:00 PM,8:30 AM A 6:30 PM,1,"DIA PAR CEDULA IMPAR, DIA IMPAR CEDULA PAR","DIA PAR CEDULA IMPAR, DIA IMPAR CEDULA PAR","DIA PAR CEDULA IMPAR, DIA IMPAR CEDULA PAR","DIA PAR CEDULA IMPAR, DIA IMPAR CEDULA PAR","DIA PAR CEDULA IMPAR, DIA IMPAR CEDULA PAR","DIA PAR CEDULA IMPAR, DIA IMPAR CEDULA PAR","DIA PAR CEDULA IMPAR, DIA IMPAR CEDULA PAR",-,-,6064000
,VILLAVICENCIO,VILLACENTRO,Avenida 40 No. 16 B 159,7:00 AM A 8:00 PM,7:00 AM A 5:00 PM,7:00 AM A 5:00 PM,1,"DIA PAR CEDULA PAR, DIA IMPAR CEDULA IMPAR","DIA PAR CEDULA PAR, DIA IMPAR CEDULA IMPAR","DIA PAR CEDULA PAR, DIA IMPAR CEDULA IMPAR","DIA PAR CEDULA PAR, DIA IMPAR CEDULA IMPAR","DIA PAR CEDULA PAR, DIA IMPAR CEDULA IMPAR","DIA PAR CEDULA PAR, DIA IMPAR CEDULA IMPAR","DIA PAR CEDULA PAR, DIA IMPAR CEDULA IMPAR",-,-,6849872
,VILLAVICENCIO,CAMINO REAL,"Calle 35 No.11A - 50. L 1,2,3",7:00 AM A 8:00 PM,7:00 AM A 5:00 PM,7:00 AM A 5:00 PM,1,"DIA PAR CEDULA PAR, DIA IMPAR CEDULA IMPAR","DIA PAR CEDULA PAR, DIA IMPAR CEDULA IMPAR","DIA PAR CEDULA PAR, DIA IMPAR CEDULA IMPAR","DIA PAR CEDULA PAR, DIA IMPAR CEDULA IMPAR","DIA PAR CEDULA PAR, DIA IMPAR CEDULA IMPAR","DIA PAR CEDULA PAR, DIA IMPAR CEDULA IMPAR","DIA PAR CEDULA PAR, DIA IMPAR CEDULA IMPAR",-,-,6849872
,BOGOTA,BOSA METRORECREO,Carrera 97C Sur No.69A - 08,7:00 AM A 9:00 PM,7:00 AM A 9:00 PM,8:00 AM A 8:00 PM,1,"DIA PAR CEDULA IMPAR, DIA IMPAR CEDULA PAR","DIA PAR CEDULA IMPAR, DIA IMPAR CEDULA PAR","DIA PAR CEDULA IMPAR, DIA IMPAR CEDULA PAR","DIA PAR CEDULA IMPAR, DIA IMPAR CEDULA PAR","DIA PAR CEDULA IMPAR, DIA IMPAR CEDULA PAR","DIA PAR CEDULA IMPAR, DIA IMPAR CEDULA PAR","DIA PAR CEDULA IMPAR, DIA IMPAR CEDULA PAR",-,-,6064000
,BOGOTA,LA ESMERALDA,Diagonal 40 No. 45A - 04,7:00 AM A 7:00 PM,7:00 AM A 4:00 PM,CERRADO,1,"DIA PAR CEDULA IMPAR, DIA IMPAR CEDULA PAR","DIA PAR CEDULA IMPAR, DIA IMPAR CEDULA PAR","DIA PAR CEDULA IMPAR, DIA IMPAR CEDULA PAR","DIA PAR CEDULA IMPAR, DIA IMPAR CEDULA PAR","DIA PAR CEDULA IMPAR, DIA IMPAR CEDULA PAR","DIA PAR CEDULA IMPAR, DIA IMPAR CEDULA PAR","DIA PAR CEDULA IMPAR, DIA IMPAR CEDULA PAR",-,-,6064000
,BOGOTA,KENNEDY 2,Calle 35 Sur 80 - 35,7:00 AM A 9:00 PM,7:00 AM A 9:00 PM,8:00 AM A 8:00 PM,1,"DIA PAR CEDULA IMPAR, DIA IMPAR CEDULA PAR","DIA PAR CEDULA IMPAR, DIA IMPAR CEDULA PAR","DIA PAR CEDULA IMPAR, DIA IMPAR CEDULA PAR","DIA PAR CEDULA IMPAR, DIA IMPAR CEDULA PAR","DIA PAR CEDULA IMPAR, DIA IMPAR CEDULA PAR","DIA PAR CEDULA IMPAR, DIA IMPAR CEDULA PAR","DIA PAR CEDULA IMPAR, DIA IMPAR CEDULA PAR",-,3183483724,6064000
,BOGOTA,RICAURTE,Calle 10 No. 27 - 56,7:00 AM A 8:00 PM,6:00 AM A 8:00 PM,8:00 AM A 4:00 PM,1,"DIA PAR CEDULA IMPAR, DIA IMPAR CEDULA PAR","DIA PAR CEDULA IMPAR, DIA IMPAR CEDULA PAR","DIA PAR CEDULA IMPAR, DIA IMPAR CEDULA PAR","DIA PAR CEDULA IMPAR, DIA IMPAR CEDULA PAR","DIA PAR CEDULA IMPAR, DIA IMPAR CEDULA PAR","DIA PAR CEDULA IMPAR, DIA IMPAR CEDULA PAR","DIA PAR CEDULA IMPAR, DIA IMPAR CEDULA PAR",-,3175171328,6064000
,BOGOTA,VENECIA,Diagonal 46 Sur 51 - 52,6:30 AM A 8:00 PM,6:30 AM A 8:00 PM,8:00 AM A 7:00 PM,1,"DIA PAR CEDULA IMPAR, DIA IMPAR CEDULA PAR","DIA PAR CEDULA IMPAR, DIA IMPAR CEDULA PAR","DIA PAR CEDULA IMPAR, DIA IMPAR CEDULA PAR","DIA PAR CEDULA IMPAR, DIA IMPAR CEDULA PAR","DIA PAR CEDULA IMPAR, DIA IMPAR CEDULA PAR","DIA PAR CEDULA IMPAR, DIA IMPAR CEDULA PAR","DIA PAR CEDULA IMPAR, DIA IMPAR CEDULA PAR",-,3157004065,6064000
,BOGOTA,FONTIBON,Calle 27 No. 100-29,8:00 AM A 8:00 PM,8:00 AM A 8:00 PM,9:00 AM A 7:00 PM,1,"DIA PAR CEDULA IMPAR, DIA IMPAR CEDULA PAR","DIA PAR CEDULA IMPAR, DIA IMPAR CEDULA PAR","DIA PAR CEDULA IMPAR, DIA IMPAR CEDULA PAR","DIA PAR CEDULA IMPAR, DIA IMPAR CEDULA PAR","DIA PAR CEDULA IMPAR, DIA IMPAR CEDULA PAR","DIA PAR CEDULA IMPAR, DIA IMPAR CEDULA PAR","DIA PAR CEDULA IMPAR, DIA IMPAR CEDULA PAR",-,3153595373,6064000
,BOGOTA,GRAN PLAZA,Calle 65 Sur No. 78H - 51 L108,7:00 AM A 9:00 PM,6:00 AM A 9:00 PM,8:00 AM A 8:00 PM,1,"DIA PAR CEDULA IMPAR, DIA IMPAR CEDULA PAR","DIA PAR CEDULA IMPAR, DIA IMPAR CEDULA PAR","DIA PAR CEDULA IMPAR, DIA IMPAR CEDULA PAR","DIA PAR CEDULA IMPAR, DIA IMPAR CEDULA PAR","DIA PAR CEDULA IMPAR, DIA IMPAR CEDULA PAR","DIA PAR CEDULA IMPAR, DIA IMPAR CEDULA PAR","DIA PAR CEDULA IMPAR, DIA IMPAR CEDULA PAR",-,3157004230,6064000
,MADRID,CASABLANCA,Calle 7 No. 1A - 91 L01,7:00 AM A 8:00 PM,7:00 AM A 8:00 PM,8:00 AM A 7:00 PM,1,"DIA PAR CEDULA IMPAR, DIA IMPAR CEDULA PAR","DIA PAR CEDULA IMPAR, DIA IMPAR CEDULA PAR","DIA PAR CEDULA IMPAR, DIA IMPAR CEDULA PAR","DIA PAR CEDULA IMPAR, DIA IMPAR CEDULA PAR","DIA PAR CEDULA IMPAR, DIA IMPAR CEDULA PAR","DIA PAR CEDULA IMPAR, DIA IMPAR CEDULA PAR",,3164250112,3155823755,6064000
,SOACHA,SAO TERREROS,Carrera 1 No. 38 - 53 L1-21 CC. Ventura Terreros,7:00 AM A 8:00 PM,7:00 AM A 8:00 PM,8:00 AM A 5:00 PM,,N/A,N/A,N/A,N/A,N/A,N/A,,3188295570-6064000,-,6064000
,SOACHA,JARDIN VERDE,Carrera 70C entre Calles 97-98 CC Jardin Verde,7:00 AM A 8:00 PM,7:00 AM A 8:00 PM,8:00 AM A 5:00 PM,,N/A,N/A,N/A,N/A,N/A,N/A,,3173770754,-,6064000
,VILLAVICENCIO,EL UNICO,Carrera 22 No. 8C - 67 L28,8:00 AM A 8:00 PM,8:00 AM A 5:00 PM,8:00 AM A 5:00 PM,1,"DIA PAR CEDULA PAR, DIA IMPAR CEDULA IMPAR","DIA PAR CEDULA PAR, DIA IMPAR CEDULA IMPAR","DIA PAR CEDULA PAR, DIA IMPAR CEDULA IMPAR","DIA PAR CEDULA PAR, DIA IMPAR CEDULA IMPAR","DIA PAR CEDULA PAR, DIA IMPAR CEDULA IMPAR","DIA PAR CEDULA PAR, DIA IMPAR CEDULA IMPAR","DIA PAR CEDULA PAR, DIA IMPAR CEDULA IMPAR",-,-,6849872
,BOGOTA,AUTOGRANDE,Carrera 14 No. 11 - 32 Sur,6:30 AM A 9:00 PM,6:30 AM A 9:00 PM,8:00 AM A 8:00 PM,1,"DIA PAR CEDULA IMPAR, DIA IMPAR CEDULA PAR","DIA PAR CEDULA IMPAR, DIA IMPAR CEDULA PAR","DIA PAR CEDULA IMPAR, DIA IMPAR CEDULA PAR","DIA PAR CEDULA IMPAR, DIA IMPAR CEDULA PAR","DIA PAR CEDULA IMPAR, DIA IMPAR CEDULA PAR","DIA PAR CEDULA IMPAR, DIA IMPAR CEDULA PAR","DIA PAR CEDULA IMPAR, DIA IMPAR CEDULA PAR",-,-,6064000
,BOGOTA,PERDOMO,Calle 75R BIS SUR No. 73B - 35,7:00 AM A 9:00 PM,7:00 AM A 9:00 PM,8:00 AM A 8:00 PM,1,"DIA PAR CEDULA IMPAR, DIA IMPAR CEDULA PAR","DIA PAR CEDULA IMPAR, DIA IMPAR CEDULA PAR","DIA PAR CEDULA IMPAR, DIA IMPAR CEDULA PAR","DIA PAR CEDULA IMPAR, DIA IMPAR CEDULA PAR","DIA PAR CEDULA IMPAR, DIA IMPAR CEDULA PAR","DIA PAR CEDULA IMPAR, DIA IMPAR CEDULA PAR","DIA PAR CEDULA IMPAR, DIA IMPAR CEDULA PAR",-,-,6064000
,BOGOTA,PASEO DEL RÍO,Calle 57D SUR #78H-14,8:00 AM A 8:00 PM,8:00 AM A 8:00 PM,8:00 AM A 7:00 PM,1,"DIA PAR CEDULA IMPAR, DIA IMPAR CEDULA PAR","DIA PAR CEDULA IMPAR, DIA IMPAR CEDULA PAR","DIA PAR CEDULA IMPAR, DIA IMPAR CEDULA PAR","DIA PAR CEDULA IMPAR, DIA IMPAR CEDULA PAR","DIA PAR CEDULA IMPAR, DIA IMPAR CEDULA PAR","DIA PAR CEDULA IMPAR, DIA IMPAR CEDULA PAR","DIA PAR CEDULA IMPAR, DIA IMPAR CEDULA PAR",-,-,6064000
,NEIVA,AMARANTO,Calle 56B No. 17 - 71 Conj Residencial Amaranto, 7:00 AM A 8:00 PM,6:00 AM A 8:00 PM,7:00 AM A 8:00 PM,1,IMPAR,PAR,IMPAR,PAR,IMPAR,PAR,IMPAR,3183112002,3187121948,-
,NEIVA,IPANEMA,Calle 8 No. 41 - 80 L1, 7:00 AM A 8:00 PM,6:00 AM A 8:00 PM,7:00 AM A 8:00 PM,1,IMPAR,PAR,IMPAR,PAR,IMPAR,PAR,IMPAR,3163509833,-,-
,NEIVA,SAO NEIVA,Carrera 5 No. 19 - 23, 7:00 AM A 8:00 PM,6:00 AM A 8:00 PM,7:00 AM A 8:00 PM,1,IMPAR,PAR,IMPAR,PAR,IMPAR,PAR,IMPAR,3187119332,-,8630236
,ESPINAL,ESPINAL,Carrera 7A  No. 10 - 69,7:00 AM A 9:00 PM,6:00 AM A 9:00 PM,8:00 AM A 9:00 PM,,N/A,N/A,N/A,N/A,N/A,N/A,N/A,3187121764,-,-
,NEIVA,SANTA LOMA,Calle 20 No. 36A - 84, 7:00 AM A 8:00 PM,6:00 AM A 8:00 PM,7:00 AM A 8:00 PM,1,IMPAR,PAR,IMPAR,PAR,IMPAR,PAR,IMPAR,3187119921,-,-
,NEIVA,CANAIMA,Calle 21 No. 22 - 28 Sur, 7:00 AM A 8:00 PM,6:00 AM A 8:00 PM,7:00 AM A 8:00 PM,1,IMPAR,PAR,IMPAR,PAR,IMPAR,PAR,IMPAR,3165216056,-,-
,IBAGUE,SAO IBAGUE LA ESTACION,Av. Colombia Carrera 36 CC. Estación, 7:00 AM A 10:00 PM,7:00 AM A 10:00 PM,9:00 AM A 9:30 PM,1,0-1-2-3,4-5-6-7,8-9-0-1,2-3-4-5,6-7-8-9,0-1-2-3-4,5-6-7-8-9,3152533931,-,2770413
,PITALITO,POPULAR JARDIN,Avenida 3 No. 13 - 22, 7:00 AM A 8:00 PM,6:00 AM A 8:00 PM ,7:00 AM A 8:00 PM,1,IMPAR,PAR,IMPAR,PAR,IMPAR,PAR,IMPAR,3176434176,-,8362731
,PITALITO,POPULAR CENTRO,Carrera 2 No. 1 - 70,6:00 AM A 8:00 PM,6:00 AM A 8:00 PM, 7:00 AM A 8:00 PM,1,IMPAR,PAR,IMPAR,PAR,IMPAR,PAR,IMPAR,3176434181,-,-
,SAN AGUSTIN,SAN AGUSTIN,Calle 2 No. 14 - 01, 6:00 AM A 9:00 PM, 6:00 AM A 9:00 PM, 7:00 AM A 9:00 PM,1,IMPAR,PAR,IMPAR,PAR,IMPAR,PAR,IMPAR,3176368792,-,-
,CAMPOALEGRE,CAMPOALEGRE,Carrera 8 No. 17 - 31,6:00 AM A 9:00 PM ,6:00 AM A 9:00 PM ,6:00 AM A 9:00 PM ,1,IMPAR,PAR,IMPAR,PAR,IMPAR,PAR,IMPAR,3163108897,-,-
,GIRARDOT,SAO GIRARDOT,Calle 14 Cra 9 esq,7:00 AM A 7:45 PM,7:00 AM A 7:45 PM, 8:00 AM A 8:00 PM,1,1-2-3.,4-5-6.,7-8-9.,0-1-2.,3-4-5.,6-7-8.,N/A,3187118985,-,8886808
,GIRARDOT,GIRARDOT ESTADIO,Calle 19 No. 24 - 04, 7:00 AM A 8:00 PM,6:00 AM A 8:00 PM, 8:00 AM A 8:00 PM,1,1-2-3.,4-5-6.,7-8-9.,0-1-2.,3-4-5.,6-7-8.,N/A,3155074029,-,-
,CÚCUTA,SAO CENTRO,Avenida 6 No. 9 - 34 CC Plaza Andes,7:00 AM A 8:00 PM,7:00 AM A 8:00 PM,8:00 AM A 4:00 PM,1,IMPAR,PAR,IMPAR,PAR,IMPAR,PAR,IMPAR,-,3173007243,5730990
,CÚCUTA,GUAIMARAL,Avenida 11E No. 7N - 129,7:00 AM A 9:00 PM,7:00 AM A 9:00 PM,8:00 AM A 9:00 PM,1,IMPAR,PAR,IMPAR,PAR,IMPAR,PAR,IMPAR,-,-,5943081
,CÚCUTA,LOS PINOS,Avenida 0 No. 1AN - 37,7:00 AM A 9:00 PM,7:00 AM A 9:00 PM,8:00 AM A 9:00 PM,1,IMPAR,PAR,IMPAR,PAR,IMPAR,PAR,IMPAR,-,-,5943081
,CÚCUTA,PRADOS,Avenida 5B No. 5 - 06,7:00 AM A 9:00 PM,7:00 AM A 9:00 PM,8:00 AM A 9:00 PM,1,IMPAR,PAR,IMPAR,PAR,IMPAR,PAR,IMPAR,-,-,5943081
,CÚCUTA,QUINTA ORIENTAL,Calle 7 No. 6E - 192,7:00 AM A 9:00 PM,7:00 AM A 9:00 PM,8:00 AM A 9:00 PM,1,IMPAR,PAR,IMPAR,PAR,IMPAR,PAR,IMPAR,-,-,5943081
,CÚCUTA,SAO JARDIN PLAZA - CÚCUTA,CC Jardin Plaza Local A1,7:00 AM A 9:00 PM,7:00 AM A 9:00 PM,8:00 AM A 9:00 PM,1,IMPAR,PAR,IMPAR,PAR,IMPAR,PAR,IMPAR,-,-,5943081
,BARRANQUILLA,SAO PORTAL DEL PRADO,Calle 53 No. 46-38,7:00 AM A 9:00 PM,6:00 AM A 9:00 PM,8:00 AM A 8:00 PM,,N/A,N/A,N/A,N/A,,N/A,N/A,3172575931,3187122079,3581717
,PUERTO COLOMBIA,PUERTO COLOMBIA,Calle 2 No. 8 - 13,7:00 AM A 9:00 PM ,6:00 AM A 7:00 PM,7:00 AM A 7:00 PM,,N/A,N/A,N/A,N/A,,N/A,N/A,3043481302,3165227016,3581717
,BARRANQUILLA,SILENCIO,Carrera 26B No. 74C - 46,7:00 AM A 9:00 PM,6:00 AM A 9:00 PM,7:00 AM A 8:00 PM,,N/A,N/A,N/A,N/A,,N/A,N/A,3188480849,3202368849,3581717
,PUERTO COLOMBIA,PRADOMAR,Calle 2 No. 17 53 L1-7,7:00 AM A 10:00 PM,6:00 AM A 7:00 PM,7:00 AM A 7:00 PM,,N/A,N/A,N/A,N/A,,N/A,N/A,NO TIENE,-,3581717
,BARRANQUILLA,CAMPO ALEGRE,Carrera 38 No. 102B - 15,6:30 AM A 9:00 PM,6:00 AM A 9:00 PM,7:30 AM A 8:00 PM,,N/A,N/A,N/A,N/A,,N/A,N/A,NO TIENE,-,3581717
,BARRANQUILLA,VIA 40,Via 40 Calle 84,7:00 AM A 9:00 PM,6:00 AM A 9:00 PM,7:00 AM A 8:00 PM,,N/A,N/A,N/A,N/A,,N/A,N/A,3183413939,-,3581717
,BARRANQUILLA,MIRAMAR,Carrera 43 No. 99-50,6:00 AM A 10:00 PM,6:00 AM A 10:00 PM,8:00 AM A 8:00 PM,,N/A,N/A,N/A,N/A,,N/A,N/A,3187121948,-,3581717
,BARRANQUILLA,SAGRADO CORAZON,Carrera 42F No. 82 - 15,8:00 AM A 9:00 PM,24 HORAS,24 HORAS,,N/A,N/A,N/A,N/A,,N/A,N/A,3157270308,-,3581717
,BARRANQUILLA,PORVENIR CRA 49C,Calle 73 con Carrera 41D,6:30 AM A 9:00 PM,6:00 AM A 9:00 PM,7:00 AM A 8:00 PM,,N/A,N/A,N/A,N/A,,N/A,N/A,3103391619,-,3581717
,PUERTO COLOMBIA,VILLA CAMPESTRE,Carrera 51B No. 138 esq,6:00 AM A 9:00 PM,6:00 AM A 7:00 PM,7:00 AM A 7:00 PM,,N/A,N/A,N/A,N/A,,N/A,N/A,NO TIENE,3164726555,3581717
,BARRANQUILLA,TORRES DEL METRO,Calle 53 No. 52 - 68 L1,7:00 AM A 10:00 PM,6:00 AM A 10:00 PM,8:00 AM A 8:00 PM,,N/A,N/A,N/A,N/A,,N/A,N/A,3157008268,-,3581717
,PUERTO COLOMBIA,VILLA CAMPESTRE CALLE 3,Calle 3 No. 25 - 203,6:30 AM A 10:00 PM,6:00 AM A 7:00 PM ,7:00 AM A 7:00 PM,,N/A,N/A,N/A,N/A,,N/A,N/A,3154277939,-,3581717
,BARRANQUILLA,CATALUNYA,Calle 84 No. 57 - 62 CC Catalunya,7:00 AM A 9:00 PM,6:00 AM A 9:00 PM,7:00 AM A 9:00 PM,,N/A,N/A,N/A,N/A,,N/A,N/A,3188113770,-,3581717
,BARRANQUILLA,TANGANAZO,Calle 72 con Carrera 60 esq,7:00 AM A 8:00 PM,6:00 AM A 8:00 PM,7:00 AM A 8:00 PM,,N/A,N/A,N/A,N/A,,N/A,N/A,3182065114,-,3581717
,BARRANQUILLA,RECREO,Calle 61 No. 41 - 100,7:00 AM A 9:00 PM,6:00 AM A 9:00 PM,7:00 AM A 8:00 PM,,N/A,N/A,N/A,N/A,,N/A,N/A,3173713226,-,3581717
,BARRANQUILLA,LA PLAYA,Carrera 13 No. 17 A - 31 CC Marbella,7:00 AM A 9:00 PM,6:00 AM A 9:00 PM,7:00 AM A 9:00 PM,,N/A,N/A,N/A,N/A,,N/A,N/A,3155970551,-,3581717
,BARRANQUILLA,NUEVA GRANADA,Carrera 32 No. 68 - 27,6:00 AM A 9:00 PM,6:00 AM A 9:00 PM,8:00 AM A 8:00 PM,,N/A,N/A,N/A,N/A,,N/A,N/A,-,-,3581717
,BARRANQUILLA,PARQUE ELIAS CHEGWIN,Carrera 47 No. 72 - 31,7:00 AM A 9:00 PM,6:00 AM A 9:00 PM,7:00 AM A 8:00 PM,,N/A,N/A,N/A,N/A,,N/A,N/A,3187122167,-,3581717
,BARRANQUILLA,CIUDAD JARDIN Cl 73,Calle 73 Kra 41 D Esq.,6:30 AM A 9:00 PM,6:00 AM A 9:00 PM,7:00 AM A 8:00 PM,,N/A,N/A,N/A,N/A,,N/A,N/A,3187122171,-,3581717
,BARRANQUILLA,PRADO ALTO,Calle 76 Kra 49 C Esq.,6:00 AM A 9:00 PM,6:00 AM A 9:00 PM,7:00 AM A 8:00 PM,,N/A,N/A,N/A,N/A,,N/A,N/A,3187122175,-,3581717
,BARRANQUILLA,CIUDAD JARDIN,Calle 78 No. 42 - 15,7:00 AM A 9:00 PM,6:00 AM A 9:00 PM,7:00 AM A 8:00 PM,,N/A,N/A,N/A,N/A,,N/A,N/A,3187232634,-,3581717
,BARRANQUILLA,GRANADILLO,Carrera 43 No. 80 - 123,7:00 AM A 9:00 PM,6:00 AM A 9:00 PM,7:00 AM A 8:00 PM,,N/A,N/A,N/A,N/A,,N/A,N/A,3154317518,-,3581717
,BARRANQUILLA,PORVENIR Cr 46,Carrera 46 No 82-54,6:00 AM A 12:00 PM,6:00 AM A 12:00 AM,6:00 AM A 12:00 PM,,N/A,N/A,N/A,N/A,,N/A,N/A,3187122178,3187122116,3581717
,BARRANQUILLA,PARAISO,Calle 84 Carrera 67 Esq.,6:00 AM A 10:00 PM,6:00 AM A 10:00 PM,8:00 AM A 8:00 PM,,N/A,N/A,N/A,N/A,,N/A,N/A,NO TIENE,3187121254,3581717
,BARRANQUILLA,CALLE 85,Carrera 51B No. 85 - 48,7:00 AM A 11:00 PM,6:00 AM A 11:00 PM,7:00 AM A 9:00 PM,,N/A,N/A,N/A,N/A,,N/A,N/A,3157236979,3168754465,3581717
,BARRANQUILLA,SAO 93,Calle 93  Carrera 46 Esq.,7:00 AM A 10:00 PM,6:00 AM A 12:00 AM,7:00 AM A 9:00 PM,,N/A,N/A,N/A,N/A,,N/A,N/A,3187122079,-,3581717
,BARRANQUILLA,SAO VILLA CAROLINA,Calle 93 No. 71 - 49,7:00 AM A 9:00 PM,6:00 AM A 9:00 PM,7:00 AM A 9:00 PM,,N/A,N/A,N/A,N/A,,N/A,N/A,3165227016,-,3581717
,BARRANQUILLA,BUENA VISTA,Carrera 56 No. 96-165,6:00 AM A 10:00 PM,6:00 AM A 10:00 PM,7:00 AM A 9:00 PM,,N/A,N/A,N/A,N/A,,N/A,N/A,3173713271,-,3581717
,BARRANQUILLA,PLAZA DEL PARQUE,Carrera 56 No. 98 - 65,24 HORAS,24 HORAS,24 HORAS,,N/A,N/A,N/A,N/A,,N/A,N/A,3162818700,-,3581717
,BARRANQUILLA,Cl 76,Calle 76 No. 49 - 18,7:00 AM A 12:00 PM,6:00 AM A 12:00 AM,7:00 AM A 11:00 PM,,N/A,N/A,N/A,N/A,,N/A,N/A,3187122090,-,3581717
,BARRANQUILLA,Cl 73 24 HORAS,Carrera 41 D No. 73 - 17,24 HORAS,24 HORAS,24 HORAS,,N/A,N/A,N/A,N/A,,N/A,N/A,318712202,-,3581717
,BARRANQUILLA,TORCOROMA,Calle 84 No. 51 B 22,24 HORAS,24 HORAS,24 HORAS,,N/A,N/A,N/A,N/A,,N/A,N/A,3187122185,3182404033,3581717
,BARRANQUILLA,GRAN CENTRO,Calle 70 No. 53-11,7:00 AM A 6:00 PM,6:00 AM A 2:00 PM,CERRADO,,N/A,N/A,N/A,N/A,,N/A,N/A,3187122102,3173654725,3581717
,BARRANQUILLA,FRENTE SAO 93,Calle 93 Carrera 46  Esq.,24 HORAS,24 HORAS,24 HORAS,,N/A,N/A,N/A,N/A,,N/A,N/A,3187122108,-,3581717
,BARRANQUILLA,GOURMET,Carrera 53 No. 82 - 77,6:00 AM A 12:00 PM,6:00 AM A 12:00 AM,6:00 AM A 11:00 PM,,N/A,N/A,N/A,N/A,,N/A,N/A,3164726555,-,3581717
,GALAPA,VILLA OLIMPICA,"Parque Industrial Los Volcanes, Villa Olimpica",7:00 AM A 9:00 PM, 6:00 AM A 6:30 PM,8:00 AM A 8:00 PM,,N/A,N/A,N/A,N/A,,N/A,N/A,3163215034,-,-
,SOLEDAD,AV. LAS TORRES,Calle 45 No. 42 - 19,7:00 AM A 9:00 PM, 6:00 AM A 6:30 PM,7:00 AM A 8:00 PM,,N/A,N/A,N/A,N/A,,N/A,N/A,3174365497-3645398,-,3581717
,BARRANQUILLA,BOSQUE,Carrera 6 # 76 - 06,7:00 AM A 9:00 PM, 6:00 AM A 9:00 PM,8:00 AM A 8:00 PM,,N/A,N/A,N/A,N/A,,N/A,N/A,-,-,3581717
,MALAMBO,MALAMBO,Calle 12 cra 1B,7:00 AM A 9:00 PM, 6:00 AM A 6:30 PM,7:00 AM A 8:00 PM,,N/A,N/A,N/A,N/A,,N/A,N/A,3166927820,-,-
,BARRANQUILLA,CAMPITO Cr 8,Carrera 8 con Calle 36,7:00 AM A 9:00 PM, 6:00 AM A 9:00 PM,7:00 AM A 9:00 PM,,N/A,N/A,N/A,N/A,,N/A,N/A,3187122097,-,3581717
,BARRANQUILLA,7 DE ABRIL,Calle 51B No. 2ASur - 05,7:00 AM A 9:00 PM, 6:00 AM A 9:00 PM,7:00 AM A 8:00 PM,,N/A,N/A,N/A,N/A,,N/A,N/A,3157545500,-,3581717
,BARRANQUILLA,LA PAZ,Calle 108 No. 12F - 18,7:00 AM A 9:00 PM, 6:00 AM A 9:00 PM,8:00 AM A 8:00 PM,,N/A,N/A,N/A,N/A,,N/A,N/A,3156123314,-,3581717
,GALAPA,GALAPA,Carrera 18 Calle 10,7:00 AM A 9:00 PM, 6:00 AM A 6:30 PM,7:00 AM A 7:00 PM,,N/A,N/A,N/A,N/A,,N/A,N/A,3184872581,-,-
,BARANOA,BARANOA,Carrera 17 No. 14 - 19,7:00 AM A 9:00 PM, 6:00 AM A 6:30 PM,7:00 AM A 7:00 PM,,N/A,N/A,N/A,N/A,,N/A,N/A,3183727530,-,-
,SOLEDAD,SOLEDAD,Carrera 22 con Calle 18,7:00 AM A 9:00 PM, 6:00 AM A 6:30 PM,8:00 AM A 8:00 PM,,N/A,N/A,N/A,N/A,,N/A,N/A,3183727573,-,3581717
,SANTO TOMAS,SANTO TOMAS,Calle 4 No. 6 - 02,7:00 AM A 7:30 PM, 6:00 AM A 6:30 PM,7:00 AM A 7:30 PM,,N/A,N/A,N/A,N/A,,N/A,N/A,3187121840,-,-
,BARRANQUILLA,MERCADO 20 DE JULIO,Carrera 43 No. 32 - 56,6:30 AM A 7:00 PM, 6:00 AM A 7:00 PM,7:00 AM A 2:00 PM,,N/A,N/A,N/A,N/A,,N/A,N/A,3187122155,-,3581717
,BARRANQUILLA,LOS ANDES,Carrera 21B No. Calle 64 Esq.,7:00 AM A 9:00 PM,6:00 AM A 10:00 PM ,7:00 AM A 9:00 PM,,N/A,N/A,N/A,N/A,,N/A,N/A,3187122116,-,3581717
,SABANALARGA,SABANALARGA,Calle 22 No. 18 - 3,6:30 AM A 8:30 PM, 6:00 AM A 6:30 PM,7:00 AM A 7:30 PM,,N/A,N/A,N/A,N/A,,N/A,N/A,3187121254,-,-
,SOLEDAD,LOS ROBLES,Calle 80 No. 23D - 77,7:00 AM A 9:00 PM, 6:00 AM A 6:30 PM,8:00 AM A 8:00 PM,,N/A,N/A,N/A,N/A,,N/A,N/A,3168754465,-,3581717
,BARRANQUILLA,LAS NIEVES,Calle 24 con Carrera 11 esq,7:00 AM A 9:00 PM, 6:00 AM A 9:00 PM,8:00 AM A 8:00 PM,,N/A,N/A,N/A,N/A,,N/A,N/A,3750041- 3187121966,-,3581717
,SOLEDAD,LOS MANGOS,Calle 25 No. 37B - 10,7:00 AM A 9:00 PM, 6:00 AM A 6:30 PM,8:00 AM A 8:00 PM,,N/A,N/A,N/A,N/A,,N/A,N/A,3173691105,-,3581717
,SOLEDAD,SOLEDAD C.C.,Calle 26 No. 18 - 26 L-1,7:00 AM A 9:00 PM, 6:00 AM A 6:30 PM,7:00 AM A 8:00 PM,,N/A,N/A,N/A,N/A,,N/A,N/A,3174045275,-,3581717
,BARRANQUILLA,LOS OLIVOS Cr 27,Carrera 27 Calle 101,7:00 AM A 9:00 PM, 6:00 AM A 9:00 PM,7:30 AM A 8:00 PM,,N/A,N/A,N/A,N/A,,N/A,N/A,3174375843,-,3581717
,SABANGRANDE,SABANAGRANDE,Calle 11 No. 7 - 42,7:00 AM A 9:00 PM, 6:00 AM A 6:30 PM,7:00 AM A 8:00 PM,,N/A,N/A,N/A,N/A,,N/A,N/A,3187080327,-,-
,BARRANQUILLA,MERCADO Cl 30,Carrera  43 No. 30 - 24,7:00 AM A 6:00 PM, 6:00 AM A 6:00 PM,7:30 AM A 2:00 PM,,N/A,N/A,N/A,N/A,,N/A,N/A,3792915,3187122064,3581717
,SOLEDAD,SAO HIPODROMO,Calle 30 Carrera 30 esq,7:00 AM A 9:00 PM, 6:00 AM A 6:30 PM,7:00 AM A 8:00 PM,,N/A,N/A,N/A,N/A,,N/A,N/A,3182404033-3134603660,-,3581717
,SABANALARGA,SABANALARGA Cr 22,Calle 27 No. 22C - 04,7:00 AM A 8:30 PM, 6:00 AM A 6:30 PM,7:00 AM A 7:30 PM,,N/A,N/A,N/A,N/A,,N/A,N/A,3102130615 - 3173654725,-,-
,SOLEDAD,SOLEDAD 2000,Calle 54 No. 14 - 14,7:00 AM A 9:00 PM, 6:00 AM A 6:30 PM,7:00 AM A 8:00 PM,,N/A,N/A,N/A,N/A,,N/A,N/A,3173314330,-,3581717
,PALMAR DE VARELA,PALMAR DE VARELA,Calle 11 No. 6 - 35,7:00 AM A 9:00 PM, 6:00 AM A 6:30 PM,7:00 AM A 8:00 PM,,N/A,N/A,N/A,N/A,,N/A,N/A,3175173751,-,-
,MALAMBO,EL CONCORD,Carrera 27 No. 15A - 31,7:00 AM A 9:00 PM, 6:00 AM A 6:30 PM,7:00 AM A 8:00 PM,,N/A,N/A,N/A,N/A,,N/A,N/A,3155456664,-,-
,BARRANQUILLA,LAS PALMAS,Calle 36 B # 13 C 45,7:00 AM A 9:00 PM, 6:00 AM A 9:00 PM,8:00 AM A 8:00 PM,,N/A,N/A,N/A,N/A,,N/A,N/A,3187122126,3187119795,3581717
,BARRANQUILLA,CHIQUINQUIRA,Carrera 30 No. 39 - 18,7:00 AM A 9:00 PM, 6:00 AM A 9:00 PM,8:00 AM A 9:00 PM,,N/A,N/A,N/A,N/A,,N/A,N/A,3175171528,-,3581717
,BARRANQUILLA,UNIVERSAL Cr 4,Calle 41B Cra 4 Esquina,7:00 AM A 9:00 PM, 6:00 AM A 9:00 PM,8:00 AM A 8:00 PM,,N/A,N/A,N/A,N/A,,N/A,N/A,3630601- 3175738158,-,3581717
,CALAMAR,CALAMAR CL 20,Calle 20 No. 2 - 56,7:00 AM A 9:00 PM, 6:00 AM A 8:30 PM,7:00 AM A 8:00 PM,,N/A,N/A,N/A,N/A,,N/A,N/A,3182677211,-,-
,BARRANQUILLA,CIUDADELA,Calle 45 Carrera 2 - 09,6:30 AM A 9:00 PM,6:00 AM A 9:00 PM,7:00 AM A 8:00 PM,,N/A,N/A,N/A,N/A,,N/A,N/A,3187122152,-,3581717
,BARRANQUILLA,MURILLO Cr 20,Calle 45 Carrera 20,7:00 AM A 9:00 PM,6:00 AM A 9:00 PM,7:00 AM A 8:00 PM,,N/A,N/A,N/A,N/A,,N/A,N/A,3187122114,3176654683,3581717
,BARRANQUILLA,SAO MACARENA,Carrera 9 Calle 47 Esq.,7:00 AM A 9:00 PM, 6:00 AM A 9:00 PM,7:30 AM A 7:00 PM,,N/A,N/A,N/A,N/A,,N/A,N/A,318712 20 76 - 3644484,-,3581717
,SOLEDAD,MANUELA BELTRAN SOLEDAD,Carrera 15A No. 30 - 150,7:00 AM A 9:00 PM, 6:00 AM A 6:30 PM,7:00 AM A 8:00 PM,,N/A,N/A,N/A,N/A,,N/A,N/A,3155824191,-,3581717
,BARRANQUILLA,BUENA ESPERANZA,Calle 63 No. 15 - 25,7:00 AM A 9:00 PM, 6:00 AM A 9:00 PM,8:00 AM A 8:00 PM,,N/A,N/A,N/A,N/A,,N/A,N/A,3154356875,-,3581717
,SOLEDAD,VILLA ADELA,Calle 47 No. 6D - 21,7:00 AM A 9:00 PM, 6:00 AM A 6:30 PM,7:00 AM A 8:00 PM,,N/A,N/A,N/A,N/A,,N/A,N/A,3155120827,-,3581717
,SOLEDAD,TERMINAL,Carrera 14 Calle 63 Esq,7:00 AM A 9:00 PM, 6:00 AM A 6:30 PM,7:00 AM A 8:00 PM,,N/A,N/A,N/A,N/A,,N/A,N/A,3187122159,-,3581717
,SOLEDAD,LA CENTRAL,Calle 65 No. 4 - 151,7:00 AM A 9:00 PM, 6:00 AM A 6:30 PM,7:00 AM A 8:00 PM,,N/A,N/A,N/A,N/A,,N/A,N/A,3166254467,-,3581717
,BARRANQUILLA,MURILLO ESTADIO,Carrera 45 No. 16A Sur  - 40,7:00 AM A 9:00 PM, 6:00 AM A 9:00 PM,7:30 AM A 8:00 PM,,N/A,N/A,N/A,N/A,,N/A,N/A,3155093891,-,3581717
,BARRANQUILLA,SIMON BOLIVAR,Calle 19 No 4 -132,7:00 AM A 9:00 PM,6:00 AM A 10:00 PM ,7:30 AM A 10:00 PM,,N/A,N/A,N/A,N/A,,N/A,N/A,-,-,3581717
,BARRANQUILLA,CORDIALIDAD Cr 16,Calle 47 No. 14 - 189,7:00 AM A 9:00 PM,6:00 AM A 10:00 PM ,7:00 AM A 10:00 PM,,N/A,N/A,N/A,N/A,,N/A,N/A,-,-,3581717
,CARTAGENA,BADILLO,Calle 1 No. 35 - 36 Badillo,6:00 AM A 8:00 PM,7:00 AM A 8:00 PM,7:00 AM A 8:00 PM,1,0-2-4-6-8,1-3-5-7-9,0-2-4-6-8,N/A,N/A,0-2-4-6-8,1-3-5-7-9,-,3187119767,6930153
,CARTAGENA,MATUNA,Carrera 9a No. 32 - 58 Matuna,6:00 AM A 8:00 PM,7:00 AM A 8:00 PM,7:00 AM A 8:00 PM,1,0-2-4-6-8,1-3-5-7-9,0-2-4-6-8,N/A,N/A,0-2-4-6-8,1-3-5-7-9,-,-,6930153
,CARTAGENA,BOCAGRANDE,Carrera 2 No. 12 - 37 Esq. B/gde,6:00 AM A 10:00 PM,7:00 AM A 10:00 PM,7:00 AM A 10:00 PM,1,0-2-4-6-8,1-3-5-7-9,0-2-4-6-8,N/A,N/A,0-2-4-6-8,1-3-5-7-9,-,-,6930153
,CARTAGENA,LOS EJECUTIVOS,C.C. Los Ejecutivos,6:00 AM A 9:00 PM,7:00 AM A 9:00 PM,7:00 AM A 9:00 PM,1,0-2-4-6-8,1-3-5-7-9,0-2-4-6-8,N/A,N/A,0-2-4-6-8,1-3-5-7-9,-,-,6930153
,CARTAGENA,SAO LA PLAZUELA,Diagonal 31 No.  71 - 130 La Plazuela,6:00 AM A 9:00 PM,7:00 AM A 9:00 PM,7:00 AM A 9:00 PM,1,0-2-4-6-8,1-3-5-7-9,0-2-4-6-8,N/A,N/A,0-2-4-6-8,1-3-5-7-9,3187122064,-,6930153
,CARTAGENA,TORICES,"Paseo Bolivar, Carrera 17 con 38A",6:00 AM A 8:30 PM,7:00 AM A 8:30 PM,7:00 AM A 8:30 PM,1,0-2-4-6-8,1-3-5-7-9,0-2-4-6-8,N/A,N/A,0-2-4-6-8,1-3-5-7-9,-,-,6930153
,CARTAGENA,PIE DE LA POPA,Calle 32 No. 20 - 128 OMNI,6:00 AM A 9:00 PM,7:00 AM A 9:00 PM,7:00 AM A 9:00 PM,1,0-2-4-6-8,1-3-5-7-9,0-2-4-6-8,N/A,N/A,0-2-4-6-8,1-3-5-7-9,-,-,6930153
,CARTAGENA,CRISANTO LUQUE,Diag 22 No. 50 - 20 Av Crisanto,6:00 AM A 9:00 PM,7:00 AM A 9:00 PM,7:00 AM A 9:00 PM,1,0-2-4-6-8,1-3-5-7-9,0-2-4-6-8,N/A,N/A,0-2-4-6-8,1-3-5-7-9,-,-,6930153
,CARTAGENA,BUENOS AIRES,Trans 54 No. 41 - 241,6:00 AM A 9:00 PM,7:00 AM A 9:00 PM,7:00 AM A 9:00 PM,1,0-2-4-6-8,1-3-5-7-9,0-2-4-6-8,N/A,N/A,0-2-4-6-8,1-3-5-7-9,-,-,6930153
,CARTAGENA,BLAS DE LEZO,Cra 3 Este No. 20A - 19 Sur,6:00 AM A 9:00 PM,7:00 AM A 9:00 PM,7:00 AM A 9:00 PM,1,0-2-4-6-8,1-3-5-7-9,0-2-4-6-8,N/A,N/A,0-2-4-6-8,1-3-5-7-9,-,-,6930153
,CARTAGENA,SAO SAN FELIPE,Calle 29B No. 17 - 109,6:00 AM A 9:00 PM,7:00 AM A 9:00 PM,7:00 AM A 9:00 PM,1,0-2-4-6-8,1-3-5-7-9,0-2-4-6-8,N/A,N/A,0-2-4-6-8,1-3-5-7-9,3187119795,-,6930153
,CARTAGENA,TRECE DE JUNIO,Diagonal 32 No. 70 - 33,6:00 AM A 9:00 PM,7:00 AM A 9:00 PM,7:00 AM A 9:00 PM,1,0-2-4-6-8,1-3-5-7-9,0-2-4-6-8,N/A,N/A,0-2-4-6-8,1-3-5-7-9,-,-,6930153
,CARTAGENA,VILLA CANDELARIA,Transversal 54 No.106 - 99,6:00 AM A 9:00 PM,7:00 AM A 9:00 PM,7:00 AM A 9:00 PM,1,0-2-4-6-8,1-3-5-7-9,0-2-4-6-8,N/A,N/A,0-2-4-6-8,1-3-5-7-9,-,-,6930153
,CARTAGENA,OUTLET BOSQUE,Tranversal 53A No.29E - 44,6:00 AM A 9:00 PM,7:00 AM A 9:00 PM,7:00 AM A 9:00 PM,1,0-2-4-6-8,1-3-5-7-9,0-2-4-6-8,N/A,N/A,0-2-4-6-8,1-3-5-7-9,-,-,6930153
,ARJONA,ARJONA,Av Juncal Cra. 44 No. 49 - 35,6:00 AM A 6:00 PM,7:00 AM A 6:00 PM,7:00 AM A 6:00 PM,1,0-2-4-6-8,1-3-5-7-9,N/A,N/A,N/A,0-2-4-6-8,1-3-5-7-9,-,-,6930153
,TURBACO,TURBACO,"Avenida Pastrana, Calle 17 No. 14 - 69",7:00 AM A 8:30 PM,7:00 AM A 9:00 PM,7:00 AM A 9:00 PM,,N/A,N/A,N/A,N/A,N/A,N/A,N/A,-,-,6849373
,CARTAGENA,PEDRO DE HEREDIA,Avenida Pedro de Heredia Calle 31 No. 39 - 260,6:00 AM A 9:00 PM,7:00 AM A 9:00 PM,7:00 AM A 9:00 PM,1,0-2-4-6-8,1-3-5-7-9,0-2-4-6-8,N/A,N/A,0-2-4-6-8,1-3-5-7-9,-,-,6930153
,CARTAGENA,LOS CAMPANOS,Calle 35 Con Cra 100 Esquina,6:00 AM A 9:30 PM,7:00 AM A 9:30 PM,7:00 AM A 9:30 PM,1,0-2-4-6-8,1-3-5-7-9,0-2-4-6-8,N/A,N/A,0-2-4-6-8,1-3-5-7-9,-,-,6930153
,CARTAGENA,SAN FERNANDO,Calle 83 No. 22B - 234,6:30 AM A 7:59 PM,7:00 AM A 9:00 PM,7:00 AM A 9:00 PM,1,0-2-4-6-8,1-3-5-7-9,0-2-4-6-8,N/A,N/A,0-2-4-6-8,1-3-5-7-9,-,-,6930153
,CARTAGENA,OLAYA PLAZA,Calle 32 No. 32 - 150,6:30 AM A 7:59 PM,7:00 AM A 8:00 PM,7:00 AM A 8:00 PM,1,0-2-4-6-8,1-3-5-7-9,0-2-4-6-8,N/A,N/A,0-2-4-6-8,1-3-5-7-9,-,-,6930153
,CARTAGENA,CARMELO,Carrera 71 Mz 3 - 112,6:00 AM A 9:00 PM,7:00 AM A 9:00 PM,7:00 AM A 9:00 PM,1,0-2-4-6-8,1-3-5-7-9,0-2-4-6-8,N/A,N/A,0-2-4-6-8,1-3-5-7-9,-,-,6930153
,CARTAGENA,CAMPESTRE,Calle 10 No. 57 - 204 L2,6:30 AM A 7:59 PM,7:00 AM A 9:00 PM,7:00 AM A 9:00 PM,1,0-2-4-6-8,1-3-5-7-9,0-2-4-6-8,N/A,N/A,0-2-4-6-8,1-3-5-7-9,-,-,6930153
,CARTAGENA,CASTELLANA MALL,Calle 30 No. 65 - 20 CC Castellana Mall,6:00 AM A 9:00 PM,7:00 AM A 9:00 PM,7:00 AM A 9:00 PM,1,0-2-4-6-8,1-3-5-7-9,0-2-4-6-8,N/A,N/A,0-2-4-6-8,1-3-5-7-9,-,-,6930153
,CARTAGENA,ZARAGOCILLA,Diagonal 30 No. 55B - 30,6:30 AM A 7:59 PM,7:00 AM A 9:00 PM,7:00 AM A 9:00 PM,1,0-2-4-6-8,1-3-5-7-9,0-2-4-6-8,N/A,N/A,0-2-4-6-8,1-3-5-7-9,-,-,6930153
,CARTAGENA,BAZURTO,"Av.P/Heredia , Calle 32 No. 26 - 104",6:00 AM A 7:00 PM,7:00 AM A 7:00 PM,7:00 AM A 7:00 PM,1,0-2-4-6-8,1-3-5-7-9,0-2-4-6-8,N/A,N/A,0-2-4-6-8,1-3-5-7-9,-,-,6930153
,CARTAGENA,24 HORAS,Avenida 3 No. 5 - 181 B/gde,6:00 AM A 11:00 PM,6:00 AM A 11:00 PM,6:00 AM A 11:00 PM,1,0-2-4-6-8,1-3-5-7-9,0-2-4-6-8,N/A,N/A,0-2-4-6-8,1-3-5-7-9,3187119767,-,6930153
,CARTAGENA,LA PLAZUELA,Multicentro LA PLAZUELA,6:00 AM A 11:00 PM,7:00 AM A 11:00 PM,7:00 AM A 11:00 PM,1,0-2-4-6-8,1-3-5-7-9,0-2-4-6-8,N/A,N/A,0-2-4-6-8,1-3-5-7-9,-,-,6930153
,MONTERIA,CENTRO,Calle 31 No. 1 - 35 Monteria,7:30 AM A 8:00 PM,7:00 AM A 8:00 PM,8:00 AM A 6:00 PM,1,"
0,2,4,6,8 - 7:00 am-1:30 pm
1,3,5,7,9 - 1:31 pm- 8:30 pm","
0,2,4,6,8 - 7:00 am-1:30 pm
1,3,5,7,9 - 1:31 pm- 8:30 pm","
0,2,4,6,8 - 7:00 am-1:30 pm
1,3,5,7,9 - 1:31 pm- 8:30 pm","
1-3-5-7-9 - 7:00 am-1:30 pm
0,2,4,6,8 - 1:31 pm- 8:30 pm","
1-3-5-7-9 - 7:00 am-1:30 pm
0,2,4,6,8 - 1:31 pm- 8:30 pm","
1-3-5-7-9 - 7:00 am-1:30 pm
0,2,4,6,8 - 1:31 pm- 8:30 pm","
1-3-5-7-9 - 7:00 am-1:30 pm
0,2,4,6,8 - 1:31 pm- 8:30 pm",7825152 - 3187119585,-,-
,MONTERIA,SAO CIRCUNVALAR,Carrera 14 No. 27 - 22 Circunvalar,7:30 AM A 9:00 PM,7:00 AM A 9:00 PM,7:30 AM A 9:00 PM,1,"
0,2,4,6,8 - 7:00 am-1:30 pm
1,3,5,7,9 - 1:31 pm- 8:30 pm","
0,2,4,6,8 - 7:00 am-1:30 pm
1,3,5,7,9 - 1:31 pm- 8:30 pm","
0,2,4,6,8 - 7:00 am-1:30 pm
1,3,5,7,9 - 1:31 pm- 8:30 pm","
1-3-5-7-9 - 7:00 am-1:30 pm
0,2,4,6,8 - 1:31 pm- 8:30 pm","
1-3-5-7-9 - 7:00 am-1:30 pm
0,2,4,6,8 - 1:31 pm- 8:30 pm","
1-3-5-7-9 - 7:00 am-1:30 pm
0,2,4,6,8 - 1:31 pm- 8:30 pm","
1-3-5-7-9 - 7:00 am-1:30 pm
0,2,4,6,8 - 1:31 pm- 8:30 pm",7835877 - 3187119583,-,7897474
,MONTERIA,C.C. DEL SUR,Calle 10 No. 25 - 105,7:30 AM A 9:00 PM,7:00 AM A 9:00 PM,8:00 AM A 8:00 PM,1,"
0,2,4,6,8 - 7:00 am-1:30 pm
1,3,5,7,9 - 1:31 pm- 8:30 pm","
0,2,4,6,8 - 7:00 am-1:30 pm
1,3,5,7,9 - 1:31 pm- 8:30 pm","
0,2,4,6,8 - 7:00 am-1:30 pm
1,3,5,7,9 - 1:31 pm- 8:30 pm","
1-3-5-7-9 - 7:00 am-1:30 pm
0,2,4,6,8 - 1:31 pm- 8:30 pm","
1-3-5-7-9 - 7:00 am-1:30 pm
0,2,4,6,8 - 1:31 pm- 8:30 pm","
1-3-5-7-9 - 7:00 am-1:30 pm
0,2,4,6,8 - 1:31 pm- 8:30 pm","
1-3-5-7-9 - 7:00 am-1:30 pm
0,2,4,6,8 - 1:31 pm- 8:30 pm",3187119656,3168754492,-
,CAUCASIA,CAUCASIA,Calle 1 con Carrera 20 CC Cauca Centro,7:00 AM A 9:00 PM,7:00 AM A 9:00 PM,7:00 AM A 8:00 PM,,N/A,N/A,N/A,N/A,N/A,N/A,N/A,3187120809,-,-
,LORICA,LORICA,Centro Troncal Via Coveñas Carrera 25 No. 11 -05,7:00 AM A 8:30 PM,7:00 AM A 8:30 PM,7:00 AM A 8:30 PM,1,"0,2,4,6,8 - 5:00 am-1:00 pm
1,3,5,7,9 - 1:00 pm - 9:00 pm","0,2,4,6,8 - 5:00 am-1:00 pm
1,3,5,7,9 - 1:00 pm - 9:00 pm","0,2,4,6,8 - 5:00 am-1:00 pm
1,3,5,7,9 - 1:00 pm - 9:00 pm",N/A,"0,2,4,6,8 - 5:00 am-1:00 pm
1,3,5,7,9 - 1:00 pm - 9:00 pm","0,2,4,6,8 - 5:00 am-1:00 pm
1,3,5,7,9 - 1:00 pm - 9:00 pm","0,2,4,6,8 - 5:00 am-1:00 pm
1,3,5,7,9 - 1:00 pm - 9:00 pm",3187120703 - 3187854571 - 3059373291,-,-
,PLANETA RICA,PLANETA RICA,Carrera 7 No. 16-35,7:00 AM A 8:00 PM,7:00 AM A 8:00 PM,7:00 AM A 8:00 PM,,N/A,N/A,N/A,N/A,N/A,N/A,N/A,3187122034,-,-
,MONTELIBANO,MONTELÍBANO,Calle 16 No. 7C - 20,7:00 AM A 8:00 PM,7:00 AM A 8:00 PM,7:00 AM A 8:00 PM,,N/A,N/A,N/A,N/A,N/A,N/A,N/A,3173709217,-,-
,CERETE,CERETE Cr 11,Carrera 11 No. 11 - 09,7:00 AM A 9:00 PM,7:00 AM A 9:00 PM,7:00 AM A 8:00 PM,1,"1-2 
7:00 am - 9:00 pm","3 - 4
7:00 am - 9:00 pm","5 - 6
7:00 am - 9:00 pm","7 - 8
7:00 am - 9:00 pm","9 - 0
7:00 am - 9:00 pm","1-2-3  7:00 am - 1:30 pm
4 - 5  1:31 pm - 9:00 pm","6-7-8  7:00 am - 1:30 pm
9-0  1:31 pm - 9:00 pm",3152533902,-,-
,MONTERIA,SAO BUENAVISTA MONTERIA,C.C. Buenavista Av Circunvalar L 101,7:00 AM A 9:00 PM,7:00 AM A 9:00 PM,8:00 AM A 8:00 PM,1,"
0,2,4,6,8 - 7:00 am-1:30 pm
1,3,5,7,9 - 1:31 pm- 8:30 pm","
0,2,4,6,8 - 7:00 am-1:30 pm
1,3,5,7,9 - 1:31 pm- 8:30 pm","
0,2,4,6,8 - 7:00 am-1:30 pm
1,3,5,7,9 - 1:31 pm- 8:30 pm","
1-3-5-7-9 - 7:00 am-1:30 pm
0,2,4,6,8 - 1:31 pm- 8:30 pm","
1-3-5-7-9 - 7:00 am-1:30 pm
0,2,4,6,8 - 1:31 pm- 8:30 pm","
1-3-5-7-9 - 7:00 am-1:30 pm
0,2,4,6,8 - 1:31 pm- 8:30 pm","
1-3-5-7-9 - 7:00 am-1:30 pm
0,2,4,6,8 - 1:31 pm- 8:30 pm",7910451 - 7910444 - 3152533920 - 3209285454,-,-
,MONTERIA,6 DE MARZO,Calle 22 con Carrera 17,7:00 AM A 9:00 PM,7:00 AM A 9:00 PM,7:30 AM A 8:00 PM,1,"
0,2,4,6,8 - 7:00 am-1:30 pm
1,3,5,7,9 - 1:31 pm- 8:30 pm","
0,2,4,6,8 - 7:00 am-1:30 pm
1,3,5,7,9 - 1:31 pm- 8:30 pm","
0,2,4,6,8 - 7:00 am-1:30 pm
1,3,5,7,9 - 1:31 pm- 8:30 pm","
1-3-5-7-9 - 7:00 am-1:30 pm
0,2,4,6,8 - 1:31 pm- 8:30 pm","
1-3-5-7-9 - 7:00 am-1:30 pm
0,2,4,6,8 - 1:31 pm- 8:30 pm","
1-3-5-7-9 - 7:00 am-1:30 pm
0,2,4,6,8 - 1:31 pm- 8:30 pm","
1-3-5-7-9 - 7:00 am-1:30 pm
0,2,4,6,8 - 1:31 pm- 8:30 pm",3187121769,-,-
,APARTADÓ,SAO APARTADÓ,C.C. Nuestro Uraba,7:00 AM A 9:00 PM,7:00 AM A 9:00 PM,7:00 AM A 8:00 PM,,N/A,N/A,N/A,N/A,N,N/A,N/A,-,-,-
,CIENAGA DE ORO,CIENAGA DE ORO,Calle 5 con Carrera 18 Esquina,7:00 AM A 9:00 PM,7:00 AM A 9:00 PM,7:00 AM A 8:00 PM,,N/A,N/A,N/A,N/A,N/A,N/A,N/A,7569410 - 3162760125,-,-
,MONTERIA,MARGEN IZQUIERDA,CR 9W No 19A-10 Urb Vallejo,7:00 AM A 9:00 PM,7:00 AM A 9:00 PM,7:30 AM A 8:30 PM,1,"
0,2,4,6,8 - 7:00 am-1:30 pm
1,3,5,7,9 - 1:31 pm- 8:30 pm","
0,2,4,6,8 - 7:00 am-1:30 pm
1,3,5,7,9 - 1:31 pm- 8:30 pm","
0,2,4,6,8 - 7:00 am-1:30 pm
1,3,5,7,9 - 1:31 pm- 8:30 pm","
1-3-5-7-9 - 7:00 am-1:30 pm
0,2,4,6,8 - 1:31 pm- 8:30 pm","
1-3-5-7-9 - 7:00 am-1:30 pm
0,2,4,6,8 - 1:31 pm- 8:30 pm","
1-3-5-7-9 - 7:00 am-1:30 pm
0,2,4,6,8 - 1:31 pm- 8:30 pm","
1-3-5-7-9 - 7:00 am-1:30 pm
0,2,4,6,8 - 1:31 pm- 8:30 pm","3145161355 - 3105147247
3164639719 - 3043436470",-,-
,MONTERIA,MONTEVERDE,Carrera 15 No. 48 - 60,7:00 AM A 9:00 PM,7:00 AM A 9:00 PM,8:00 AM A 8:00 PM,1,"
0,2,4,6,8 - 7:00 am-1:30 pm
1,3,5,7,9 - 1:31 pm- 8:30 pm","
0,2,4,6,8 - 7:00 am-1:30 pm
1,3,5,7,9 - 1:31 pm- 8:30 pm","
0,2,4,6,8 - 7:00 am-1:30 pm
1,3,5,7,9 - 1:31 pm- 8:30 pm","
1-3-5-7-9 - 7:00 am-1:30 pm
0,2,4,6,8 - 1:31 pm- 8:30 pm","
1-3-5-7-9 - 7:00 am-1:30 pm
0,2,4,6,8 - 1:31 pm- 8:30 pm","
1-3-5-7-9 - 7:00 am-1:30 pm
0,2,4,6,8 - 1:31 pm- 8:30 pm","
1-3-5-7-9 - 7:00 am-1:30 pm
0,2,4,6,8 - 1:31 pm- 8:30 pm",3154283507,-,-
,MONTERIA,P5 MONTERIA,Carrera 15 6B 12,7:00 AM A 9:00 PM,7:00 AM A 9:00 PM,8:00 AM A 8:00 PM,1,"
0,2,4,6,8 - 7:00 am-1:30 pm
1,3,5,7,9 - 1:31 pm- 8:30 pm","
0,2,4,6,8 - 7:00 am-1:30 pm
1,3,5,7,9 - 1:31 pm- 8:30 pm","
0,2,4,6,8 - 7:00 am-1:30 pm
1,3,5,7,9 - 1:31 pm- 8:30 pm","
1-3-5-7-9 - 7:00 am-1:30 pm
0,2,4,6,8 - 1:31 pm- 8:30 pm","
1-3-5-7-9 - 7:00 am-1:30 pm
0,2,4,6,8 - 1:31 pm- 8:30 pm","
1-3-5-7-9 - 7:00 am-1:30 pm
0,2,4,6,8 - 1:31 pm- 8:30 pm","
1-3-5-7-9 - 7:00 am-1:30 pm
0,2,4,6,8 - 1:31 pm- 8:30 pm",3187121926,-,-
,TURBO,TURBO,Carrera 13 No. 101 - 70,7:00 AM A 8:00 PM,7:00 AM A 8:00 PM,8:00 AM A 7:00 PM,1,"2,4,6,8,0",N/A,N/A,N/A,N/A,N/A,N/A,3157188801,-,-
,MONTERIA,MONTERIA,Carrera 2 No. 36 - 65 centro,7:00 AM A 7:00 PM,7:00 AM A 7:00 PM,8:00 AM A 2:00 PM,1,"
0,2,4,6,8 - 7:00 am-1:30 pm
1,3,5,7,9 - 1:31 pm- 8:30 pm","
0,2,4,6,8 - 7:00 am-1:30 pm
1,3,5,7,9 - 1:31 pm- 8:30 pm","
0,2,4,6,8 - 7:00 am-1:30 pm
1,3,5,7,9 - 1:31 pm- 8:30 pm","
1-3-5-7-9 - 7:00 am-1:30 pm
0,2,4,6,8 - 1:31 pm- 8:30 pm","
1-3-5-7-9 - 7:00 am-1:30 pm
0,2,4,6,8 - 1:31 pm- 8:30 pm","
1-3-5-7-9 - 7:00 am-1:30 pm
0,2,4,6,8 - 1:31 pm- 8:30 pm","
1-3-5-7-9 - 7:00 am-1:30 pm
0,2,4,6,8 - 1:31 pm- 8:30 pm",7822235 - 3187120801,-,-
,CERETE,CERETE,Calle San Antonio,7:00 AM A 8:00 PM,7:00 AM A 8:00 PM,7:00 AM A 6:00 PM,1,"1-2 
7:00 am - 9:00 pm","3 - 4
7:00 am - 9:00 pm","5 - 6
7:00 am - 9:00 pm","7 - 8
7:00 am - 9:00 pm","9 - 0
7:00 am - 9:00 pm","1-2-3  7:00 am - 1:30 pm
4 - 5  1:31 pm - 9:00 pm","6-7-8  7:00 am - 1:30 pm
9-0  1:31 pm - 9:00 pm",7746764 - 3187120797,-,-
,MONTERIA,Cl 16 MONTERIA,Calle16 No. 7A - 14. El Taurino,7:00 AM A 9:00 PM,7:00 AM A 9:00 PM,8:00 AM A 8:00 PM,1,"
0,2,4,6,8 - 7:00 am-1:30 pm
1,3,5,7,9 - 1:31 pm- 8:30 pm","
0,2,4,6,8 - 7:00 am-1:30 pm
1,3,5,7,9 - 1:31 pm- 8:30 pm","
0,2,4,6,8 - 7:00 am-1:30 pm
1,3,5,7,9 - 1:31 pm- 8:30 pm","
1-3-5-7-9 - 7:00 am-1:30 pm
0,2,4,6,8 - 1:31 pm- 8:30 pm","
1-3-5-7-9 - 7:00 am-1:30 pm
0,2,4,6,8 - 1:31 pm- 8:30 pm","
1-3-5-7-9 - 7:00 am-1:30 pm
0,2,4,6,8 - 1:31 pm- 8:30 pm","
1-3-5-7-9 - 7:00 am-1:30 pm
0,2,4,6,8 - 1:31 pm- 8:30 pm",7837995 - 3187120792,,-
,NECOCLÍ,NECOCLÍ,Cll 50 No. 43-12 B/ Parroquial Sector del comercio,7:00 AM A 9:00 PM,7:00 AM A 9:00 PM,7:00 AM A 8:00 PM,,N/A,N/A,N/A,N/A,N/A,N/A,N/A,,-,-
,SANTA MARTA,CENTRO,Calle 11 No. 8 - 54,6:00 AM A 8:00 PM,6:00 AM A 8:00 PM,6:00 AM A 4:00 PM,,,,,,,,,3187120748,-,-
,SANTA MARTA,RODADERO,Carrera 4 No. 13 - 58 Rodadero,7:00 AM A 9:00 PM,7:00 AM A 9:00 PM,8:00 AM A 8:00 PM,,,,,,,,,3187120745,3187120644,-
,SANTA MARTA,SAO SANTA MARTA,Calle 23 No. 7 - 150,7:00 AM A 9:00 PM,7:00 AM A 9:00 PM,8:00 AM A 8:00 PM,,,,,,,,,3187120749,-,4358282
,SANTA MARTA,AV. L/TADOR,Transversal 14 No. 27 - 256,7:00 AM A 9:00 PM,7:00 AM A 9:00 PM,8:00 AM A 8:00 PM,,,,,,,,,3187120733,-,-
,SANTA MARTA,RECORD,Carrera 9 No. 10 - 41,6:00 AM A 8:00 PM,6:00 AM A 8:00 PM,6:00 AM A 4:00 PM,,,,,,,,,3187120729,-,-
,SANTA MARTA,SANTAMARTA,Carrera 18 No 30 - 36,7:00 AM A 9:00 PM,7:00 AM A 9:00 PM,8:00 AM A 8:00 PM,,,,,,,,,3187121985,-,-
,FUNDACIÓN,FUNDACION,Calle 6A No. 8A - 16/18,6:00 AM A 8:00 PM,6:00 AM A 8:00 PM,6:00 AM A 8:00 PM,1,IMPAR,PAR,IMPAR,PAR,IMPAR,PAR,N/A,3187121522,-,-
,SANTA MARTA,TERMINAL SANTA MARTA,Calle 34 No. 29 - 10,7:00 AM A 9:00 PM,7:00 AM A 9:00 PM,8:00 AM A 8:00 PM,,,,,,,,,3168754492,3134727242-3134727253,4358282
,SANTA MARTA,GAIRA,Calle 6 No. 13 - 06,7:00 AM A 9:00 PM,7:00 AM A 9:00 PM,7:00 AM A 8:00 PM,,,,,,,,,3152533882,-,-
,SANTA MARTA,ESTACION MOVIL RIO,Transversal 14 No. 30 - 146,7:00 AM A 9:00 PM,7:00 AM A 9:00 PM,8:00 AM A 8:00 PM,,,,,,,,,3187119904,-,4358282
,SANTA MARTA,CARRERA 24,Av. Libertador No. 24 - 59,7:00 AM A 9:00 PM,7:00 AM A 9:00 PM,8:00 AM A 8:00 PM,,,,,,,,,3187120725,-,-
,RIOHACHA,SAO RIOACHA,Calle 15 No.15 - 74,7:00 AM A 9:00 PM,7:00 AM A 9:00 PM,8:00 AM A 8:00 PM,,,,,,,,,3187120709,3183727540,-
,SANTA MARTA,MANZANARES Cl 30,Calle 30 No. 6A - 97,7:00 AM A 9:00 PM,7:00 AM A 9:00 PM,8:00 AM A 8:00 PM,,,,,,,,,3165215105,3016425806,-
,ARACATACA,ARACATACA,Calle 8 No. 5A - 41,7:00 AM A 9:00 PM,7:00 AM A 9:00 PM,8:00 AM A 8:00 PM,,,,,,,,,3155337562,-,-
,SANTA MARTA,MINCA,Carrera 49 No. 53 - 67,7:00 AM A 9:00 PM,7:00 AM A 9:00 PM,8:00 AM A 8:00 PM,,,,,,,,,3164740887,-,-
,SANTA MARTA,LA BONGA,Carrera 16 No. 7 - 39,7:00 AM A 9:00 PM,7:00 AM A 9:00 PM,8:00 AM A 8:00 PM,,,,,,,,,3176683199,3205286044,-
,PIVIJAY,PIVIJAY,Calle 11 No. 12 - 02,7:00 AM A 9:00 PM,7:00 AM A 9:00 PM,8:00 AM A 8:00 PM,,,,,,,,,3023120555,-,-
,EL BANCO,EL BANCO MAGDALENA,Calle 7 No. 13 - 133,7:00 AM A 9:00 PM,7:00 AM A 9:00 PM,7:00 AM A 9:00 PM,,,,,,,,,3182674221,-,-
,SANTA MARTA,GRAN BAZAR,Calle 22 No. 4L LA - 01 CC Gran Bazar,7:00 AM A 9:00 PM,7:00 AM A 9:00 PM,8:00 AM A 4:00 PM,,,,,,,,,3187119071,-,-
,RIOHACHA,RIOHACHA Cr 7,Carrera 7 No. 35 - 23,7:00 AM A 8:00 PM,7:00 AM A 8:00 PM,8:00 AM A 7:00 PM,,,,,,,,,3153946414,,-
,SANTA MARTA,BELLO HORIZONTE,Carrera 4 No. 122 - 345,7:00 AM A 9:00 PM,7:00 AM A 9:00 PM,8:00 AM A 8:00 PM,,,,,,,,,3157237350,-,-
,SANTA MARTA,MAMATOCO,Calle 29 No. 51 - 51,7:00 AM A 9:00 PM,7:00 AM A 9:00 PM,8:00 AM A 8:00 PM,,,,,,,,,3155083098,-,-
,MAICAO,MAICAO,Calle 17 No. 24 - 33,7:00 AM A 6:00 PM,7:00 AM A 6:00 PM,8:00 AM A 6:00 PM,1,0-1-2-3,4-5-6-7,8-9-0-1,2-3-4-5,6-7-8-9,IMPAR,PAR,3155039093,-,-
,MAICAO,MAICAO MEZQUITA ,Calle 12 No. 6-61,7:00 AM A 6:00 PM,7:00 AM A 6:00 PM,7:00 AM A 6:00 PM,1,0-1-2-3,4-5-6-7,8-9-0-1,2-3-4-5,6-7-8-9,IMPAR,PAR,,-,
,CIENAGA,CIENADA CALLE 20,Calle 20 No. 28 - 35,7:00 AM A 7:00 PM ,7:00 AM A 7:00 PM ,7:00 AM A 4:00 PM ,,,,,,,,,3176398245,-,-
,SANTA MARTA,CLINICA MAR CARIBE,Calle 22 No. 18A - 120,7:00 AM A 9:00 PM,7:00 AM A 9:00 PM,8:00 AM A 8:00 PM,,,,,,,,,3192506185,-,-
,CIENAGA,CIENAGA,Calle 17 No. 18 - 56,7:00 AM A 7:00 PM ,7:00 AM A 7:00 PM ,7:00 AM A 4:00 PM ,,,,,,,,,3187120644,-,-
,SANTA MARTA,TACALOA RODADERO,Carrera 2 No.10 - 21 ed.Tacaloa,7:00 AM A 9:00 PM,7:00 AM A 9:00 PM,7:30 AM A 9:00 PM,,,,,,,,,3158652039,-,-
,SAHAGÚN,SAHAGÚN,Calle 14 No. 10 - 44,7:00 AM A 9:00 PM,7:00 AM A 9:00 PM,7:30 AM A 8:00 PM,,,,,,,,,3167442671-3235264538,-,-
,COVEÑAS,COVEÑAS,Calle 10 No. 24 - 84,7:00 AM A 9:00 PM,7:00 AM A 9:00 PM,7:00 AM A 8:00 PM,,,,,,,,,3155090066,-,-
,SAMPUES,SAMPUES,Carrera 20 No. 25 - 102,7:00 AM A 9:00 PM,7:00 AM A 7:00 PM,7:30 AM A 7:00 PM,,,,,,,,,3182742444,-,-
,SINCELEJO,SAO GUACARI SINCELEJO,Calle 28 No. 25B - 97,7:00 AM A 9:00 PM,7:00 AM A 9:00 PM,7:00 AM A 9:00 PM,,,,,,,,,3157003763,-,-
,SINCELEJO,SAO SINCELEJO,Calle 21 No. 16 - 25 Sincelejo,7:00 AM A 9:00 PM,7:00 AM A 9:00 PM,7:00 AM A 8:00 PM,,,,,,,,,2762818-2814040-2822444-2825903-2825904,-,2762818
,COROZAL,COROZAL,Calle 31 No. 25 - 36,7:00 AM A 9:00 PM,7:00 AM A 9:00 PM,8:00 AM A 8:00 PM,,,,,,,,,3187119919-3116858449,-,2840888
,SINCELEJO,EURO,Calle 25 No. 21 - 47,7:00 AM A 9:00 PM,7:00 AM A 9:00 PM,7:00 AM A 8:00 PM,,,,,,,,,3187119917,,2821791
,MAGANGUE,SAO MAGANGUE,Carrera 15 No. 16 - 47,7:00 AM A 9:00 PM,7:00 AM A 9:00 PM,7:00 AM A 8:00 PM,,,,,,,,,3187119912-3012804813,-,-
,TOLÚ,TOLU,Carrera 2 No.16 - 46,7:00 AM A 9:00 PM,7:00 AM A 9:00 PM,7:00 AM A 8:00 PM,,,,,,,,,3183727540,,2882711
,SINCELEJO,SAN CARLOS,Calle 15 No. 8 - 156,7:00 AM A 9:00 PM,7:00 AM A 9:00 PM,7:00 AM A 8:00 PM,,,,,,,,,3183117992,-,3183117992
,SINCELEJO,ARGELIA,Calle 32 No. 8B - 93,7:00 AM A 9:00 PM,7:00 AM A 9:00 PM,7:30 AM A 8:00 PM,,,,,,,,,3187759209,-,-
,SAN MARCOS,SAN MARCOS,Carrera 26 No. 28 - 96,7:00 AM A 9:00 PM,7:00 AM A 9:00 PM,7:30 AM A 8:00 PM,,,,,,,,,3182855402,-,-
,CHINU,CHINU,Carrera 8 con Calle 15/16,7:00 AM A 9:00 PM,7:00 AM A 9:00 PM,8:00 AM A 8:00 PM,,,,,,,,,3172914383,3232105510,-
,PLATO,PLATO Cr 15,Carrera 15 con Calle 17,7:00 AM A 9:00 PM,7:00 AM A 9:00 PM,7:30 AM A 8:00 PM,,,,,,,,,3186732488,3163103281,-
,SAN JUAN NEPOMUCENO,SAN JUAN NEPOMUCENO,Calle 9 No. 8 - 35,7:00 AM A 7:30 PM,7:00 AM A 7:30 PM,7:00 AM A 7:30 PM,,,,,,,,,3187121936,3232105509,-
,SAN ONOFRE,SAN ONOFRE,Carrera 20 No 19A - 48,7:00 AM A 9:00 PM,7:00 AM A 9:00 PM,7:30 AM A 8:00 PM,,,,,,,,,3183501681,3232105507,-
,SINCELEJO,SAN MIGUEL,Carrera 27 #22 A -32,7:00 AM A 9:00 PM,7:00 AM A 9:00 PM,7:00 AM A 8:00 PM,,,,,,,,,,-,
,MOMPOX,MOMPOX,Calle 17 No. 3 - 43,7:00 AM A 9:00 PM,6:00 AM A 8:00 PM,8:00 AM A 8:00 PM,,,,,,,,,3156888088,-,-
,SINCELEJO,Cr 18 SINCELEJO,Carrera 18 No. 20 - 50,7:00 AM A 9:00 PM,7:00 AM A 9:00 PM,7:00 AM A 8:00 PM,,,,,,,,,3187119918,-,2825905
,SINCELEJO,Cl 25B SINCELEJO,Calle 25 B No. 28 - 331,7:00 AM A 9:00 PM,7:00 AM A 9:00 PM,7:00 AM A 8:00 PM,,,,,,,,,3187120721,-,2800751
,CARMEN DE BOLIVAR,CARMEN DE BOLIVAR,Carrera 52 No. 23 - 12,7:00 AM A 9:00 PM,7:00 AM A 9:00 PM,8:00 AM A 8:00 PM,1,,,,"2 y 4 de 7:00 AM A 2:00 PM
6-8-0 de 2:00  PM A 9:00 PM","5-7-9 de 7:00 AM A 2:00 PM
1 y 3 de 2:00  PM A 9:00 PM","6-8-0  de 8:00 AM A 2:00 PM
2 y 4 de 2:00  PM A 8:00 PM","1 y 3 de 7:00 AM A 2:00 PM
5-7-9 de 2:00  PM A 9:00 PM",3185896003,"3232078925
3187119292",-
,MAGANGUE,MAGANGUÉ,Calle 15 No. 6 - 135,7:00 AM A 8:00 PM,7:00 AM A 8:00 PM,8:00 AM A 4:00 PM,1,,,,,,,,3176399889,"3232078928
3187119291",-
,FONSECA,FONSECA,Calle 13 No. 18 -51,7:00 AM A 7:00 PM,7:00 AM A 7:00 PM,7:00 AM A 5:00 PM,,"2,3,4","5,6,7","8,9,0","1,2,3","3,4,5,","6,7,8","9,0,1",3182669464,"3232105521
3187119296",5891019
,VALLEDUPAR,SAO VALLEDUPAR,Diagonal 16 No. 17 - 69,7:00 AM A 9:00 PM,7:00 AM A 9:00 PM,8:00 AM A 8:00 PM,,N/A,N/A,N/A,N/A,N/A,N/A,N/A,3187120763,-,5891019
,VALLEDUPAR,VALLEDUPAR CORTIJO,Calle 11 No. 19 - 8,7:00 AM A 9:00 PM,7:00 AM A 9:00 PM,8:00 AM A 8:00 PM,,N/A,N/A,N/A,N/A,N/A,N/A,N/A,3187120763,3152533928,5891019
,AGUSTIN CODAZZI,CODAZZI,Carrera 18 No. 20 - 35 Esquina,7:00 AM A 9:00 PM,7:00 AM A 9:00 PM,7:00 AM A 8:00 PM,,N/A,N/A,N/A,N/A,N/A,N/A,N/A,-,3187120907,5891019
,SAN JUAN CESAR,SAN JUAN DEL CESAR,Carrera 8 No. 8 - 05,7:00 AM A 6:00 PM,7:00 AM A 6:00 PM,8:00 AM A 6:00 PM,,N/A,N/A,N/A,N/A,N/A,N/A,N/A,-,-,5891019
,VALLEDUPAR,SIERRA NEVADA VALLEDUP,Lote Norte Av. Sierra Nevada,7:00 AM A 9:00 PM,6:00 AM A 9:00 PM,8:00 AM A 8:00 PM,,N/A,N/A,N/A,N/A,N/A,N/A,N/A,3187120763,-,5891019
,AGUACHICA,SAO AGUACHICA Cr 23,Calle 5 No. 23 - 73,7:00 AM A 9:00 PM,7:00 AM A 9:00 PM,8:00 AM A 8:00 PM,,NA,NA,NA,NA,N/A,N/A,N/A,3174284377,-,5891019
,BOSCONIA,BOSCONIA,Calle 18 No. 20 - 25,7:00 AM A 8:00 PM,7:00 AM A 8:00 PM,8:00 AM A 7:00 PM,,N/A,N/A,N/A,N/A,N/A,N/A,N/A,-,-,5891019
,VALLEDUPAR,MAYALES,Carrera 35A No. 5F Esquina,7:00 AM A 8:00 PM,7:00 AM A 8:00 PM,8:00 AM A 8:00 PM,,N/A,N/A,N/A,N/A,N/A,N/A,N/A,3187120763,3232105505,5891019
,CURUMANÍ,CURUMANÍ,Calle 7 No. 17 - 60,7:00 AM A 9:00 PM,7:00 AM A 9:00 PM,8:00 AM A 8:00 PM,1,"1,3,5,7,9","0,2,4,6,8 ","1,3,5,7,9","0,2,4,6,8 ","1,3,5,7,9","0,2,4,6,8 ","1,3,5,7,9",3187120763,-,5891019
,VALLEDUPAR,SAO MEGAMALL,Calle 16 No. 19B - 56 L1,7:00 AM A 9:00 PM,7:00 AM A 9:00 PM,8:00 AM A 8:00 PM,,N/A,N/A,N/A,N/A,N/A,N/A,N/A,3187120763,3232078926,5891019
,OCAÑA,OCAÑA,Calle 10 No. 11 - 55 Local 1 CC Santa Marta,7:00 AM A 8:00 PM,7:00 AM A 8:00 PM,8:00 AM A 7:00 PM,1,"1,3,5,7,9","0,2,4,6,8 ","1,3,5,7,9","0,2,4,6,8 ","1,3,5,7,9","0,2,4,6,8 ","1,3,5,7,9",3155053618,-,5891019
,VALLEDUPAR,VALLEDUPAR,Carrera 9 No. 13C - 80,7:00 AM A 9:00 PM,7:00 AM A 9:00 PM,8:00 AM A 8:00 PM,,N/A,N/A,N/A,N/A,N/A,N/A,N/A,3187120763,3232105508,5891019
,VALLEDUPAR,PETROMIL,Diagonal 21 No. 19D - 20,7:00 AM A 9:00 PM,7:00 AM A 9:00 PM,8:00 AM A 8:00 PM,,N/A,N/A,N/A,N/A,N/A,N/A,N/A,3187120763,-,5891019
,CALI,ALAMEDA,Calle 9 No. 23C - 58,7:00 AM A 9:00 PM,7:00 AM A 9:00 PM,8:00 AM A 6:00 PM,,N/A,N/A,N/A,1-3-5-7-9,2-4-6-8-0,1-3-5-7-9,2-4-6-8-0,3187120911,-,4850525
,CALI,SALOMIA,Carrera 3 No. 52 - 28,7:00 AM A 9:00 PM,7:00 AM A 9:00 PM,8:00 AM A 9:00 PM,,N/A,N/A,N/A,1-3-5-7-9,2-4-6-8-0,1-3-5-7-9,2-4-6-8-0,3228169899,-,4850525
,CALI,LA BASE,Carrera 8 No. 58 - 100,7:00 AM A 9:00 PM,7:00 AM A 9:00 PM,8:00 AM A 8:30 PM,,N/A,N/A,N/A,1-3-5-7-9,2-4-6-8-0,1-3-5-7-9,2-4-6-8-0,-,-,4850525
,CALI,AV. TERCERA NORTE,Avenida 3a Norte No. 57 - 100,7:00 AM A 9:00 PM,7:00 AM A 9:00 PM,7:00 AM A 9:00 PM,,N/A,N/A,N/A,1-3-5-7-9,2-4-6-8-0,1-3-5-7-9,2-4-6-8-0,-,-,4850525
,CALI,TEQUENDAMA,Calle 6A No.  43-51,7:00 AM A 9:00 PM,7:00 AM A 9:00 PM,8:00 AM A 9:00 PM,,N/A,N/A,N/A,1-3-5-7-9,2-4-6-8-0,1-3-5-7-9,2-4-6-8-0,3187119328,-,4850525
,CALI,MANZANARES,Calle 44  No. 2-95,7:00 AM A 9:00 PM,7:00 AM A 9:00 PM,8:00 AM A 9:00 PM,,N/A,N/A,N/A,1-3-5-7-9,2-4-6-8-0,1-3-5-7-9,2-4-6-8-0,3187119306,3187174959,4850525
,CALI,VERSALLES,Avenida 4N No.  21N - 89,7:00 AM A 9:00 PM,7:00 AM A 9:00 PM,8:00 AM A 9:00 PM,,N/A,N/A,N/A,1-3-5-7-9,2-4-6-8-0,1-3-5-7-9,2-4-6-8-0,3187119326,-,4850525
,CALI,BARRANQUILLA,Carrera 1D 1 No. 62 - 04,7:00 AM A 9:00 PM,7:00 AM A 9:00 PM,8:00 AM A 9:00 PM,,N/A,N/A,N/A,1-3-5-7-9,2-4-6-8-0,1-3-5-7-9,2-4-6-8-0,3187119307,3232105511,4850525
,CALI,LOS CRISTALES,Carrera 25 Oeste No. 6 - 120,7:00 AM A 9:00 PM,7:00 AM A 9:00 PM,8:00 AM A 9:00 PM,,N/A,N/A,N/A,1-3-5-7-9,2-4-6-8-0,1-3-5-7-9,2-4-6-8-0,-,3232105518,4850525
,PALMIRA,PALMIRA,Calle 42 No 27 - 24,7:00 AM A 7:30 PM,7:00 AM A 7:30 PM,7:00 AM A 7:30 PM,1,2-4-6-8-0,N/A,N/A,2-4-6-8-0,1-3-5-7-9,2-4-6-8-0,1-3-5-7-9,-,3187119229,2868950
,PALMIRA,SAO MARDEN 47,Calle 47 No. 33 - 01,7:00 AM A 7:00 PM,7:00 AM A 7:00 PM,7:00 AM A 7:00 PM,1,2-4-6-8-0,N/A,N/A,2-4-6-8-0,1-3-5-7-9,2-4-6-8-0,1-3-5-7-9,3219134231,3232105519,2868950
,PALMIRA,SAO MARDEN BOSQUE,Carrera 1 con Tranversal 32 Este,7:00 AM A 7:00 PM,7:00 AM A 7:00 PM,7:00 AM A 7:00 PM,1,2-4-6-8-0,N/A,N/A,2-4-6-8-0,1-3-5-7-9,2-4-6-8-0,1-3-5-7-9,3219134238,3187119222,2868950
,CALI,ALAMEDA 2,Calle 8 No. 26 - 39,7:00 AM A 9:00 PM,7:00 AM A 9:00 PM,8:00 AM A 5:00 PM,,N/A,N/A,N/A,1-3-5-7-9,2-4-6-8-0,1-3-5-7-9,2-4-6-8-0,3187121726,3232105516,4850525
,PALMIRA,PALMIRA UNICENTRO,C.C. Unicentro,7:00 AM A 7:00 PM,7:00 AM A 7:00 PM,7:00 AM A 7:00 PM,1,2-4-6-8-0,N/A,N/A,2-4-6-8-0,1-3-5-7-9,2-4-6-8-0,1-3-5-7-9,-,3232105514,2868950
,CALI,GUADALUPE,Calle 18A No. 56 - 65,7:00 AM A 9:00 PM,7:00 AM A 9:00 PM,8:00 AM A 9:00 PM,,N/A,N/A,N/A,1-3-5-7-9,2-4-6-8-0,1-3-5-7-9,2-4-6-8-0,-,3187119282,4850525
,CALI,PORVENIR,Carrera 5 No. 31A - 31,7:00 AM A 9:00 PM,7:00 AM A 9:00 PM,7:00 AM A 9:00 PM,,N/A,N/A,N/A,1-3-5-7-9,2-4-6-8-0,1-3-5-7-9,2-4-6-8-0,-,3232105515,4850525
,CALI,LA QUINTA,Carrera 5A No. 59 - 141,7:00 AM A 9:00 PM,7:00 AM A 9:00 PM,8:00 AM A 9:00 PM,,N/A,N/A,N/A,1-3-5-7-9,2-4-6-8-0,1-3-5-7-9,2-4-6-8-0,-,-,4850525
,CALI,LA 26,Calle 44 No. 26 - 05,7:00 AM A 9:00 PM,7:00 AM A 9:00 PM,8:00 AM A 9:00 PM,,N/A,N/A,N/A,1-3-5-7-9,2-4-6-8-0,1-3-5-7-9,2-4-6-8-0,-,3232105517,4850525
,CALI,CAÑAVERAL,Carrera 46 No.48 - 40,7:00 AM A 9:00 PM,7:00 AM A 9:00 PM,7:00 AM A 9:00 PM,,N/A,N/A,N/A,1-3-5-7-9,2-4-6-8-0,1-3-5-7-9,2-4-6-8-0,3187120982,3232105520,4850525
,CALI,VILLACOLOMBIA,Calle 51 No. 14 - 12,7:00 AM A 9:00 PM,7:00 AM A 9:00 PM,8:00 AM A 9:00 PM,,N/A,N/A,N/A,1-3-5-7-9,2-4-6-8-0,1-3-5-7-9,2-4-6-8-0,3187120973,3187119303,4850525
,JAMUNDÍ,JAMUNDÍ,Carrera 10 No. 13 - 60 CC Caña Dulce,7:00 AM A 9:00 PM,7:00 AM A 9:00 PM,7:00 AM A 9:00 PM,1,2-4-6-8-0,N/A,N/A,2-4-6-8-0,1-3-5-7-9,2-4-6-8-0,1-3-5-7-9,3163805869,3175021894,5923536
,CALI,CANEY,Calle 42 No. 80 - 01,7:00 AM A 9:00 PM,7:00 AM A 9:00 PM,8:00 AM A 9:00 PM,,N/A,N/A,N/A,1-3-5-7-9,2-4-6-8-0,1-3-5-7-9,2-4-6-8-0,-,3232105513,4850525
,CALI,GUAYAQUIL,Calle 15 No. 18A  - 34,7:00 AM A 9:00 PM,7:00 AM A 9:00 PM,8:00 AM A 9:00 PM,,N/A,N/A,N/A,1-3-5-7-9,2-4-6-8-0,1-3-5-7-9,2-4-6-8-0,-,-,4850525
,CALI,ACACIAS,Calle 23 No. 23 - 24,7:00 AM A 9:00 PM,7:00 AM A 9:00 PM,8:00 AM A 9:00 PM,,N/A,N/A,N/A,1-3-5-7-9,2-4-6-8-0,1-3-5-7-9,2-4-6-8-0,-,-,4850525
,CALI,PASO ANCHO,Calle 13 No. 75A - 85,7:00 AM A 9:00 PM,7:00 AM A 9:00 PM,8:00 AM A 9:00 PM,,N/A,N/A,N/A,1-3-5-7-9,2-4-6-8-0,1-3-5-7-9,2-4-6-8-0,-,-,4850525
,CALI,LAS GRANJAS,Calle 16 No. 43 - 45,7:00 AM A 9:00 PM,7:00 AM A 9:00 PM,8:00 AM A 9:00 PM,,N/A,N/A,N/A,1-3-5-7-9,2-4-6-8-0,1-3-5-7-9,2-4-6-8-0,-,-,4850525
,CALI,LOS LAGOS,Calle 72U No. 26I - 03,7:00 AM A 9:00 PM,7:00 AM A 9:00 PM,8:00 AM A 9:00 PM,,N/A,N/A,N/A,1-3-5-7-9,2-4-6-8-0,1-3-5-7-9,2-4-6-8-0,3187119298,-,4850525
,CALI,EL POBLADO,Carrera 28D No. 72T - 72,7:00 AM A 9:00 PM,7:00 AM A 9:00 PM,8:00 AM A 9:00 PM,,N/A,N/A,N/A,1-3-5-7-9,2-4-6-8-0,1-3-5-7-9,2-4-6-8-0,3182393060,Si,4850525
,CALI,LAS GRANJAS 2,Calle 16 No. 49 - 08,7:00 AM A 9:00 PM,7:00 AM A 9:00 PM,8:00 AM A 9:00 PM,,N/A,N/A,N/A,1-3-5-7-9,2-4-6-8-0,1-3-5-7-9,2-4-6-8-0,-,No,4850525
,CALI,PRIMAVERA,Carrera 32 No. 34 - 08 Sur,7:00 AM A 9:00 PM,7:00 AM A 9:00 PM,8:00 AM A 9:00 PM,,N/A,N/A,N/A,1-3-5-7-9,2-4-6-8-0,1-3-5-7-9,2-4-6-8-0,-,Si,4850525
,POPAYAN,PALMERA PLAZA,Carrera 17 No. 61N - 16 CC Palmera Plaza,7:00 AM A 9:00 PM,7:00 AM A 9:00 PM,7:00 AM A 9:00 PM,1,1-3-5-7-9,0-2-4-6-8,1-3-5-7-9,0-2-4-6-8,1-3-5-7-9,0-2-4-6-8,1-3-5-7-9,-,Si,-
,PUERTO TEJADA,PUERTO TEJADA Cl 22,Calle 22 con Carrera 21,7:00 AM A 9:00 PM,7:00 AM A 9:00 PM,7:00 AM A 9:00 PM,,N/A,N/A,N/A,N/A,N/A,N/A,N/A,-,No,-
,BUENAVENTURA,SAO BUENAVENTURA 2 Cr 46,Carrera 46 con Calle 1,7:00 AM A 7:00 PM,7:00 AM A 7:00 PM,7:00 AM A 7:00 PM,,N/A,N/A,N/A,N/A,N/A,N/A,N/A,-,No,-
,BUGA,BUGA,Calle 7 No. 11 - 93,7:00 AM A 9:00 PM,7:00 AM A 9:00 PM,7:00 AM A 9:00 PM,1,2-4-6-8-0,N/A,N/A,2-4-6-8-0,1-3-5-7-9,2-4-6-8-0,1-3-5-7-9,3187119234,Si,2369495
,TULUA,TULUA,Carrera  20 No.  27 - 00,7:00 AM A 9:00 PM,7:00 AM A 9:00 PM,7:00 AM A 9:00 PM,1,2-4-6-8-0,N/A,N/A,2-4-6-8-0,1-3-5-7-9,2-4-6-8-0,1-3-5-7-9,-,No,-
,BUENAVENTURA,BUENAVENTURA,Calle 2A No. 1A - 08,7:00 AM A 7:00 PM,7:00 AM A 7:00 PM,7:00 AM A 7:00 PM,,N/A,N/A,N/A,N/A,N/A,N/A,N/A,NO,No,NO
,RESTREPO,RESTREPO,Carrera 10 No. 9 - 47,7:00 AM A 9:00 PM,7:00 AM A 9:00 PM,7:00 AM A 9:00 PM,1,2-4-6-8-0,N/A,N/A,2-4-6-8-0,1-3-5-7-9,2-4-6-8-0,1-3-5-7-9,NO,No,NO
,TULUA,LA CAMPIÑA,Carrera 22 No. 14A -15,7:00 AM A 9:00 PM,7:00 AM A 9:00 PM,7:00 AM A 9:00 PM,1,2-4-6-8-0,N/A,N/A,2-4-6-8-0,1-3-5-7-9,2-4-6-8-0,1-3-5-7-9,-,Si,2306463
,POPAYAN,POPAYAN NORTE,Carrera 9 # 24N - 80,7:00 AM A 9:00 PM,7:00 AM A 9:00 PM,7:00 AM A 9:00 PM,1,1-3-5-7-9,0-2-4-6-8,1-3-5-7-9,0-2-4-6-8,1-3-5-7-9,0-2-4-6-8,1-3-5-7-9,3203223148,No,8373200 - 8202071 EXT 200
,POPAYAN,SAO POPAYAN CENTRAL,Calle 2N No. 7 - 74,7:00 AM A 9:00 PM,7:00 AM A 9:00 PM,7:00 AM A 9:00 PM,1,1-3-5-7-9,0-2-4-6-8,1-3-5-7-9,0-2-4-6-8,1-3-5-7-9,0-2-4-6-8,1-3-5-7-9,3228177367-3228177366,No,8202068 - 8236777 - 8236776
,SANTANDER DE QUILICHAO,SANTANDER DE QUILICHAO,Carrera 10 No. 2 - 41,7:00 AM A 9:00 PM,7:00 AM A 9:00 PM,7:00 AM A 9:00 PM,1,1-3-5-7-9,0-2-4-6-8,1-3-5-7-9,0-2-4-6-8,1-3-5-7-9,0-2-4-6-8,1-3-5-7-9,3187119281,3163748465,8293383 EXT 200
,POPAYAN,SAN FRANCISCO,Calle 4 No. 8 - 89,8:00 AM A 8:00 PM,8:00 AM A 8:00 PM,CERRADO,1,1-3-5-7-9,0-2-4-6-8,1-3-5-7-9,0-2-4-6-8,1-3-5-7-9,0-2-4-6-8,1-3-5-7-9,-,3164301430,8373200
,TULUA,TULUA CANASTA,Calle 25 No. 17 - 05,7:00 AM A 9:00 PM,7:00 AM A 9:00 PM,7:00 AM A 9:00 PM,1,2-4-6-8-0,N/A,N/A,2-4-6-8-0,1-3-5-7-9,2-4-6-8-0,1-3-5-7-9,3166401038 - 3173364123,3187119853,2318787 EXT. 100
,CANDELARIA,CANDELARIA VALLE,Carrera 8 No. 9 - 13,7:00 AM A 9:00 PM,7:00 AM A 9:00 PM,7:00 AM A 9:00 PM,1,1-3-5-7-9,N/A,N/A,2-4-6-8-0,1-3-5-7-9,2-4-6-8-0,1-3-5-7-9,SI,3187119855,-
,GUACARÍ,GUACARI,Carrera 8 No. 4 - 46,7:00 AM A 9:00 PM,7:00 AM A 9:00 PM,7:00 AM A 9:00 PM,1,2-4-6-8-0,N/A,N/A,2-4-6-8-0,1-3-5-7-9,2-4-6-8-0,1-3-5-7-9,3187119303,3187119851,-
,POPAYAN,POPAYAN Cr 9,Carrera 9 No. 17 - 11,7:00 AM A 9:00 PM,7:00 AM A 9:00 PM,7:00 AM A 9:00 PM,1,1-3-5-7-9,0-2-4-6-8,1-3-5-7-9,0-2-4-6-8,1-3-5-7-9,0-2-4-6-8,1-3-5-7-9,SI,3187119848,8373200
,EL CERRITO,EL CERRITO,Calle 9 No. 11 - 60,7:00 AM A 9:00 PM,7:00 AM A 9:00 PM,7:00 AM A 9:00 PM,1,2-4-6-8-0,N/A,N/A,2-4-6-8-0,1-3-5-7-9,2-4-6-8-0,1-3-5-7-9,-,3187119811,-
,BUENAVENTURA,LAS AMERICAS,Carrera 66 No. 8 - 55,7:00 AM A 7:00 PM,7:00 AM A 7:00 PM,7:00 AM A 7:00 PM,,N/A,N/A,N/A,N/A,N/A,N/A,N/A,-,-,-